{
"type": "FeatureCollection",
"name": "_nanning_grain_spatial_nodes.tmp",
"crs": { "type": "name", "properties": { "name": "urn:ogc:def:crs:EPSG::4490" } },
"features": [
{ "type": "Feature", "properties": { "candidate_id": "cand_88f87be3136e6cd7", "name": "南宁市储备粮管理有限责任公司五象粮库", "node_type": "grain_depot", "city": "南宁市", "county": "良庆区", "address": "南宁市良庆区沙河路8号", "grid_id": "GX1K_R000187_C000413", "grid_assignment_method": "within", "geocoding_confidence": "high", "evidence_level": "A", "longitude_project": 108.38478154000001, "latitude_project": 22.68953682, "coordinate_shift_m": 515.636 }, "geometry": { "type": "Point", "coordinates": [ 108.38478154, 22.68953682 ] } },
{ "type": "Feature", "properties": { "candidate_id": "cand_51a15c6a164e752f", "name": "南宁市储备粮管理有限责任公司沙井粮库", "node_type": "grain_depot", "city": "南宁市", "county": "江南区", "address": "南宁市江南区旱塘路9号", "grid_id": "GX1K_R000199_C000401", "grid_assignment_method": "within", "geocoding_confidence": "high", "evidence_level": "A", "longitude_project": 108.26496966000001, "latitude_project": 22.7949885, "coordinate_shift_m": 511.016 }, "geometry": { "type": "Point", "coordinates": [ 108.26496966, 22.7949885 ] } },
{ "type": "Feature", "properties": { "candidate_id": "cand_e668195854f37fbc", "name": "南宁市邕宁区粮食储备库", "node_type": "grain_depot", "city": "南宁市", "county": "邕宁区", "address": "南宁市邕宁区蒲庙镇蒲津路100号", "grid_id": "GX1K_R000195_C000424", "grid_assignment_method": "within", "geocoding_confidence": "medium", "evidence_level": "B", "longitude_project": 108.48671009, "latitude_project": 22.75751839, "coordinate_shift_m": 511.545 }, "geometry": { "type": "Point", "coordinates": [ 108.48671009, 22.75751839 ] } },
{ "type": "Feature", "properties": { "candidate_id": "cand_c74c0263d26b505b", "name": "横州市六景粮食储备中心库（良圻库区）", "node_type": "grain_depot", "city": "南宁市", "county": "横州市", "address": "横州市六景镇良圻农场（良圻库区）", "grid_id": "GX1K_R000199_C000470", "grid_assignment_method": "within", "geocoding_confidence": "medium", "evidence_level": "A", "longitude_project": 108.94234512, "latitude_project": 22.79116118, "coordinate_shift_m": 521.003 }, "geometry": { "type": "Point", "coordinates": [ 108.94234512, 22.79116118 ] } },
{ "type": "Feature", "properties": { "candidate_id": "cand_cf426488f6d27fc6", "name": "上林县安恒储备粮管理有限公司澄泰分公司1号仓库", "node_type": "grain_depot", "city": "南宁市", "county": "上林县", "address": "上林县澄泰乡澄泰社区澄泰街312号", "grid_id": "GX1K_R000269_C000442", "grid_assignment_method": "within", "geocoding_confidence": "high", "evidence_level": "A", "longitude_project": 108.66678236, "latitude_project": 23.42858763, "coordinate_shift_m": 497.378 }, "geometry": { "type": "Point", "coordinates": [ 108.66678236, 23.42858763 ] } },
{ "type": "Feature", "properties": { "candidate_id": "cand_6f7e0144c4f72f80", "name": "上林县安恒储备粮管理有限公司塘红分公司仓库", "node_type": "grain_depot", "city": "南宁市", "county": "上林县", "address": "上林县塘红乡塘红街6号", "grid_id": "GX1K_R000296_C000439", "grid_assignment_method": "within", "geocoding_confidence": "high", "evidence_level": "A", "longitude_project": 108.63549839, "latitude_project": 23.67232748, "coordinate_shift_m": 496.624 }, "geometry": { "type": "Point", "coordinates": [ 108.63549839, 23.67232748 ] } },
{ "type": "Feature", "properties": { "candidate_id": "cand_8db24acc4b1ff1c4", "name": "广西壮族自治区南宁粮食储备库有限公司", "node_type": "grain_depot", "city": "南宁市", "county": "江南区", "address": "南宁市江南区壮锦大道10号", "grid_id": "GX1K_R000199_C000401", "grid_assignment_method": "within", "geocoding_confidence": "high", "evidence_level": "A", "longitude_project": 108.26790402, "latitude_project": 22.79893032, "coordinate_shift_m": 510.923 }, "geometry": { "type": "Point", "coordinates": [ 108.26790402, 22.79893032 ] } }
]
}
