{
"type": "FeatureCollection",
"name": "_nanning_grain_physical_sites.tmp",
"crs": { "type": "name", "properties": { "name": "urn:ogc:def:crs:EPSG::4490" } },
"features": [
{ "type": "Feature", "properties": { "candidate_id": "cand_88f87be3136e6cd7", "name": "南宁市储备粮管理有限责任公司五象粮库", "parent_candidate_id": "cand_91ebae3cd24b144c", "parent_organization": "南宁市储备粮管理有限责任公司", "site_relation": "grain_storage_site", "city": "南宁市", "county": "良庆区", "address": "南宁市良庆区沙河路8号", "address_precision": "door_number", "entity_type": "physical_site", "node_type": "grain_depot", "physical_site_confirmed": "true", "storage_confirmed": "true", "evidence_level": "A", "address_confidence": "high", "longitude_raw": "108.388866", "latitude_raw": "22.686831", "coordinate_system_raw": "GCJ02", "geocoding_status": "success", "geocoding_confidence": "high", "spatial_ready": "true", "address_source": "manual_verified_public_evidence", "address_evidence_id": "addr_ev_c1a61f508b40aa12", "source_url": "https://www.cqn.com.cn/pp/content/2022-09/07/content_8859152.htm", "source_note": "南宁市市场监督管理局飞行检查信息明确给出五象粮库生产地址为沙河路8号。", "previous_location": "", "location_update_reason": "manual_address_evidence", "longitude_project": 108.38478154000001, "latitude_project": 22.68953682, "coordinate_system_project": "EPSG:4490", "coordinate_shift_m": 515.636, "coordinate_roundtrip_error_m": 0.0001, "coordinate_shift_quality": "normal", "grid_id": "GX1K_R000187_C000413", "grid_assignment_method": "within", "grid_primary_county_adcode": "450108", "grid_primary_county_name": "良庆区", "grid_county_names": "良庆区", "administrative_match": "true" }, "geometry": { "type": "Point", "coordinates": [ 108.38478154, 22.68953682 ] } },
{ "type": "Feature", "properties": { "candidate_id": "cand_51a15c6a164e752f", "name": "南宁市储备粮管理有限责任公司沙井粮库", "parent_candidate_id": "cand_91ebae3cd24b144c", "parent_organization": "南宁市储备粮管理有限责任公司", "site_relation": "grain_storage_site", "city": "南宁市", "county": "江南区", "address": "南宁市江南区旱塘路9号", "address_precision": "door_number", "entity_type": "physical_site", "node_type": "grain_depot", "physical_site_confirmed": "true", "storage_confirmed": "true", "evidence_level": "A", "address_confidence": "high", "longitude_raw": "108.268884", "latitude_raw": "22.792138", "coordinate_system_raw": "GCJ02", "geocoding_status": "success", "geocoding_confidence": "high", "spatial_ready": "true", "address_source": "manual_verified_public_evidence", "address_evidence_id": "addr_ev_b17077ab7c26efe2", "source_url": "https://finance.sina.cn/2024-12-19/detail-inczysvv6884104.d.html", "source_note": "2024年食品安全监督抽检信息中生产者为沙井粮库，地址为旱塘路9号；2026年威宁集团采购公告亦指向该粮库。", "previous_location": "", "location_update_reason": "manual_address_evidence", "longitude_project": 108.26496966000001, "latitude_project": 22.7949885, "coordinate_system_project": "EPSG:4490", "coordinate_shift_m": 511.016, "coordinate_roundtrip_error_m": 0.0001, "coordinate_shift_quality": "normal", "grid_id": "GX1K_R000199_C000401", "grid_assignment_method": "within", "grid_primary_county_adcode": "450105", "grid_primary_county_name": "江南区", "grid_county_names": "江南区", "administrative_match": "true" }, "geometry": { "type": "Point", "coordinates": [ 108.26496966, 22.7949885 ] } },
{ "type": "Feature", "properties": { "candidate_id": "cand_e668195854f37fbc", "name": "南宁市邕宁区粮食储备库", "parent_candidate_id": "", "parent_organization": "", "site_relation": "unknown", "city": "南宁市", "county": "邕宁区", "address": "南宁市邕宁区蒲庙镇蒲津路100号", "address_precision": "door_number", "entity_type": "physical_site", "node_type": "grain_depot", "physical_site_confirmed": "true", "storage_confirmed": "true", "evidence_level": "B", "address_confidence": "medium", "longitude_raw": "108.490651", "latitude_raw": "22.754693", "coordinate_system_raw": "GCJ02", "geocoding_status": "success", "geocoding_confidence": "medium", "spatial_ready": "true", "address_source": "manual_verified_public_evidence", "address_evidence_id": "addr_ev_c76fea2a9307ed91", "source_url": "https://s.zhaobiao.cn/search_q_06010009_qs_b_s_0404_pro_450000_f_02_d_02_p_1.html", "source_note": "企业信息聚合页列明储备库地址及粮食收购、仓储经营范围；建议地理编码后保留人工复核标记。", "previous_location": "", "location_update_reason": "manual_address_evidence", "longitude_project": 108.48671009, "latitude_project": 22.75751839, "coordinate_system_project": "EPSG:4490", "coordinate_shift_m": 511.545, "coordinate_roundtrip_error_m": 0.0001, "coordinate_shift_quality": "normal", "grid_id": "GX1K_R000195_C000424", "grid_assignment_method": "within", "grid_primary_county_adcode": "450109", "grid_primary_county_name": "邕宁区", "grid_county_names": "邕宁区;青秀区", "administrative_match": "true" }, "geometry": { "type": "Point", "coordinates": [ 108.48671009, 22.75751839 ] } },
{ "type": "Feature", "properties": { "candidate_id": "cand_c74c0263d26b505b", "name": "横州市六景粮食储备中心库（良圻库区）", "parent_candidate_id": "cand_0ef95076697e3a66", "parent_organization": "横州市六景粮食储备中心库", "site_relation": "grain_storage_site", "city": "南宁市", "county": "横州市", "address": "横州市六景镇良圻农场（良圻库区）", "address_precision": "site_area", "entity_type": "physical_site", "node_type": "grain_depot", "physical_site_confirmed": "true", "storage_confirmed": "true", "evidence_level": "A", "address_confidence": "medium", "longitude_raw": "108.946254", "latitude_raw": "22.788161", "coordinate_system_raw": "GCJ02", "geocoding_status": "success", "geocoding_confidence": "medium", "spatial_ready": "true", "address_source": "manual_verified_public_evidence", "address_evidence_id": "addr_ev_c74c0263d26b505b", "source_url": "https://www.gxhx.gov.cn/yw/tzgg/qtgg/t6217618.html", "source_note": "横州市政府2024年报告确认六景粮食储备中心库及良圻库区当前承担粮食储备/产后服务；公开项目资料将项目位置指向六景镇良圻农场。", "previous_location": "", "location_update_reason": "manual_address_evidence", "longitude_project": 108.94234512, "latitude_project": 22.79116118, "coordinate_system_project": "EPSG:4490", "coordinate_shift_m": 521.003, "coordinate_roundtrip_error_m": 0.0001, "coordinate_shift_quality": "normal", "grid_id": "GX1K_R000199_C000470", "grid_assignment_method": "within", "grid_primary_county_adcode": "450181", "grid_primary_county_name": "横州市", "grid_county_names": "横州市", "administrative_match": "true" }, "geometry": { "type": "Point", "coordinates": [ 108.94234512, 22.79116118 ] } },
{ "type": "Feature", "properties": { "candidate_id": "cand_cf426488f6d27fc6", "name": "上林县安恒储备粮管理有限公司澄泰分公司1号仓库", "parent_candidate_id": "cand_107d87fa017d4370", "parent_organization": "上林县安恒储备粮管理有限公司澄泰分公司", "site_relation": "warehouse_site", "city": "南宁市", "county": "上林县", "address": "上林县澄泰乡澄泰社区澄泰街312号", "address_precision": "door_number", "entity_type": "physical_site", "node_type": "grain_depot", "physical_site_confirmed": "true", "storage_confirmed": "true", "evidence_level": "A", "address_confidence": "high", "longitude_raw": "108.670642", "latitude_raw": "23.425851", "coordinate_system_raw": "GCJ02", "geocoding_status": "success", "geocoding_confidence": "high", "spatial_ready": "true", "address_source": "manual_verified_public_evidence", "address_evidence_id": "addr_ev_cf426488f6d27fc6", "source_url": "https://www.shanglin.gov.cn/yw/tzgg/t6521222.html", "source_note": "上林县政府建设项目公告明确为绿色低温仓储设施建设项目澄泰分公司1号仓库工程，并给出地址。", "previous_location": "", "location_update_reason": "manual_address_evidence", "longitude_project": 108.66678236, "latitude_project": 23.42858763, "coordinate_system_project": "EPSG:4490", "coordinate_shift_m": 497.378, "coordinate_roundtrip_error_m": 0.0, "coordinate_shift_quality": "normal", "grid_id": "GX1K_R000269_C000442", "grid_assignment_method": "within", "grid_primary_county_adcode": "450125", "grid_primary_county_name": "上林县", "grid_county_names": "上林县", "administrative_match": "true" }, "geometry": { "type": "Point", "coordinates": [ 108.66678236, 23.42858763 ] } },
{ "type": "Feature", "properties": { "candidate_id": "cand_6f7e0144c4f72f80", "name": "上林县安恒储备粮管理有限公司塘红分公司仓库", "parent_candidate_id": "cand_bca8e2dd3a82b40a", "parent_organization": "上林县安恒储备粮管理有限公司塘红分公司", "site_relation": "warehouse_site", "city": "南宁市", "county": "上林县", "address": "上林县塘红乡塘红街6号", "address_precision": "door_number", "entity_type": "physical_site", "node_type": "grain_depot", "physical_site_confirmed": "true", "storage_confirmed": "true", "evidence_level": "A", "address_confidence": "high", "longitude_raw": "108.639303", "latitude_raw": "23.669529", "coordinate_system_raw": "GCJ02", "geocoding_status": "success", "geocoding_confidence": "high", "spatial_ready": "true", "address_source": "manual_verified_public_evidence", "address_evidence_id": "addr_ev_6f7e0144c4f72f80", "source_url": "https://www.dscq.com/packageDetails/181c7bf2ea4247d4ad9467691df35e20.shtml", "source_note": "广西联合产权交易相关项目披露塘红分公司1、3仓及2仓；前期核验到坐落位置为塘红街6号。", "previous_location": "", "location_update_reason": "manual_address_evidence", "longitude_project": 108.63549839, "latitude_project": 23.67232748, "coordinate_system_project": "EPSG:4490", "coordinate_shift_m": 496.624, "coordinate_roundtrip_error_m": 0.0001, "coordinate_shift_quality": "normal", "grid_id": "GX1K_R000296_C000439", "grid_assignment_method": "within", "grid_primary_county_adcode": "450125", "grid_primary_county_name": "上林县", "grid_county_names": "上林县", "administrative_match": "true" }, "geometry": { "type": "Point", "coordinates": [ 108.63549839, 23.67232748 ] } },
{ "type": "Feature", "properties": { "candidate_id": "cand_8db24acc4b1ff1c4", "name": "广西壮族自治区南宁粮食储备库有限公司", "parent_candidate_id": "", "parent_organization": "", "site_relation": "unknown", "city": "南宁市", "county": "江南区", "address": "南宁市江南区壮锦大道10号", "address_precision": "door_number", "entity_type": "physical_site", "node_type": "grain_depot", "physical_site_confirmed": "true", "storage_confirmed": "true", "evidence_level": "A", "address_confidence": "high", "longitude_raw": "108.271820", "latitude_raw": "22.796083", "coordinate_system_raw": "GCJ02", "geocoding_status": "success", "geocoding_confidence": "high", "spatial_ready": "true", "address_source": "manual_verified_public_evidence", "address_evidence_id": "addr_ev_900fe9dea120fa0b", "source_url": "https://ggzy.jgswj.gxzf.gov.cn/jyxx/001001/001001001/001001001001/20251010/82365d96-5fda-452c-a986-3d733f79eb07.html", "source_note": "广西公共资源交易平台2025年粮库仓房升级改造项目明确建设地点为壮锦大道10号，并涉及10间仓房。", "previous_location": "", "location_update_reason": "manual_address_evidence", "longitude_project": 108.26790402, "latitude_project": 22.79893032, "coordinate_system_project": "EPSG:4490", "coordinate_shift_m": 510.923, "coordinate_roundtrip_error_m": 0.0001, "coordinate_shift_quality": "normal", "grid_id": "GX1K_R000199_C000401", "grid_assignment_method": "within", "grid_primary_county_adcode": "450105", "grid_primary_county_name": "江南区", "grid_county_names": "江南区", "administrative_match": "true" }, "geometry": { "type": "Point", "coordinates": [ 108.26790402, 22.79893032 ] } }
]
}
