{
"type": "FeatureCollection",
"name": "food_supply_routes",
"crs": { "type": "name", "properties": { "name": "urn:ogc:def:crs:OGC:1.3:CRS84" } },
"features": [
{ "type": "Feature", "properties": { "dispatch_plan_id": "food_rescue_case_02", "case_id": "rescue_case_02", "district_code": "450181", "settlement_name": "那阳镇", "source_node_id": "cand_c74c0263d26b505b", "source_node_name": "横州市六景粮食储备中心库（良圻库区）", "source_node_type": "grain_depot", "source_node_straight_line_distance_m": 40385.776217139908, "material_scope": "food_supply_only", "inventory_known": false, "dispatch_quantity": null, "quantity_status": "requires_inventory_and_demand_confirmation", "route_status": "no_safe_route", "total_route_distance_m": null, "road_record_ids": [ ], "routing_rule": "exclude_all_suspected_affected_roads", "source_nodes_attempted": 7, "max_origin_connector_distance_m": 5000, "local_population_2020_buffer_estimate": 8595.9273986816406, "estimated_people": 8596, "planning_days": 3, "food_person_days_required": 25788, "minimum_drinking_water_liters_required": 25788, "water_requirement_basis": "MEM_three_day_family_emergency_minimum_3L_per_person", "inventory_confirmation_required": true, "official_material_dispatch_reference": "material_dispatch_20260706", "official_road_interruptions_spatially_applied": false, "event_id": "nanning_flood_20260706_0707", "analysis_date": "2026-07-07", "data_type": "real", "calculation_version": "dispatch_v3", "data_source": "SmartbiData fixed shared inputs", "source_commit": "074f2c6841becf074f14d90e06a2e9672972f1ec" }, "geometry": null },
{ "type": "Feature", "properties": { "dispatch_plan_id": "food_rescue_case_01", "case_id": "rescue_case_01", "district_code": "450126", "settlement_name": "新宾", "source_node_id": "cand_cf426488f6d27fc6", "source_node_name": "上林县安恒储备粮管理有限公司澄泰分公司1号仓库", "source_node_type": "grain_depot", "source_node_straight_line_distance_m": 25843.214222049599, "material_scope": "food_supply_only", "inventory_known": false, "dispatch_quantity": null, "quantity_status": "requires_inventory_and_demand_confirmation", "route_status": "route_found", "total_route_distance_m": 48856.678562033507, "road_record_ids": [ "roads:gis_osm_roads_free:526255949:secondary", "roads:gis_osm_roads_free:1527839477:secondary", "roads:gis_osm_roads_free:1527839475:secondary", "roads:gis_osm_roads_free:618829525:trunk", "roads:gis_osm_roads_free:857785324:trunk", "roads:gis_osm_roads_free:857785323:trunk", "roads:gis_osm_roads_free:1344758360:trunk", "roads:gis_osm_roads_free:1344758361:trunk", "roads:gis_osm_roads_free:1531542013:trunk", "roads:gis_osm_roads_free:1531542014:trunk", "roads:gis_osm_roads_free:526256002:trunk", "roads:gis_osm_roads_free:1529294171:trunk", "roads:gis_osm_roads_free:1529294172:trunk", "roads:gis_osm_roads_free:521773630:trunk", "roads:gis_osm_roads_free:521773629:trunk_link", "roads:gis_osm_roads_free:1011741072:trunk", "roads:gis_osm_roads_free:521710777:trunk", "roads:gis_osm_roads_free:521710779:trunk", "roads:gis_osm_roads_free:521710778:trunk", "roads:gis_osm_roads_free:907596382:trunk", "roads:gis_osm_roads_free:907596383:trunk", "roads:gis_osm_roads_free:907596384:secondary", "roads:gis_osm_roads_free:527277199:secondary", "roads:gis_osm_roads_free:629194326:tertiary", "roads:gis_osm_roads_free:395693017:tertiary" ], "routing_rule": "exclude_all_suspected_affected_roads", "source_nodes_attempted": 1, "max_origin_connector_distance_m": 5000, "local_population_2020_buffer_estimate": 13320.722450256348, "estimated_people": 13321, "planning_days": 3, "food_person_days_required": 39963, "minimum_drinking_water_liters_required": 39963, "water_requirement_basis": "MEM_three_day_family_emergency_minimum_3L_per_person", "inventory_confirmation_required": true, "official_material_dispatch_reference": "material_dispatch_20260706", "official_road_interruptions_spatially_applied": false, "event_id": "nanning_flood_20260706_0707", "analysis_date": "2026-07-07", "data_type": "real", "calculation_version": "dispatch_v3", "data_source": "SmartbiData fixed shared inputs", "source_commit": "074f2c6841becf074f14d90e06a2e9672972f1ec" }, "geometry": { "type": "LineString", "coordinates": [ [ 108.6663136, 23.428447099999968 ], [ 108.6658064, 23.428316699999961 ], [ 108.6652181, 23.428428399999973 ], [ 108.6649427, 23.428428399999973 ], [ 108.6644877, 23.428428399999973 ], [ 108.6578128, 23.427590700000035 ], [ 108.657265, 23.427367300000029 ], [ 108.6550332, 23.42612009999997 ], [ 108.65446510000001, 23.425785 ], [ 108.6537753, 23.42494720000002 ], [ 108.652683300000021, 23.4231408 ], [ 108.6525639, 23.42301579999997 ], [ 108.652352, 23.422880800000069 ], [ 108.6522589, 23.42283370000003 ], [ 108.6520329, 23.422822100000033 ], [ 108.6518263, 23.422850600000054 ], [ 108.6515385, 23.422954099999981 ], [ 108.6513481, 23.422998500000034 ], [ 108.650364600000017, 23.4231244 ], [ 108.6500916, 23.423241400000034 ], [ 108.6497993, 23.4232934 ], [ 108.649251, 23.423290400000013 ], [ 108.6480743, 23.423457900000017 ], [ 108.6463092, 23.423420700000019 ], [ 108.6449904, 23.423420700000019 ], [ 108.6445644, 23.4232717 ], [ 108.6443412, 23.422918 ], [ 108.6444021, 23.422247799999987 ], [ 108.6446049, 23.421242500000076 ], [ 108.6444629, 23.4206654 ], [ 108.6433018, 23.419049800000014 ], [ 108.64298, 23.418719400000022 ], [ 108.6421906, 23.418232100000044 ], [ 108.6415092, 23.417997699999979 ], [ 108.6411554, 23.4177378 ], [ 108.6409397, 23.4176089 ], [ 108.640481, 23.417473700000013 ], [ 108.639778100000015, 23.417426700000036 ], [ 108.6397402, 23.417145599999987 ], [ 108.6396245, 23.416905700000054 ], [ 108.6394697, 23.416754900000019 ], [ 108.6390923, 23.416202800000015 ], [ 108.6386597, 23.415608699999961 ], [ 108.638325400000014, 23.4151611 ], [ 108.6380471, 23.414562299999965 ], [ 108.6379194, 23.414151600000018 ], [ 108.6378221, 23.413602 ], [ 108.6374832, 23.40942 ], [ 108.6374767, 23.409339699999936 ], [ 108.6374849, 23.408908799999971 ], [ 108.637514, 23.4085142 ], [ 108.6375768, 23.408277900000012 ], [ 108.637621, 23.4081318 ], [ 108.6376598, 23.407966 ], [ 108.6378187, 23.407562 ], [ 108.6379069, 23.4073378 ], [ 108.6386471, 23.405456199999964 ], [ 108.6388153, 23.404803100000048 ], [ 108.638839, 23.4042459 ], [ 108.6387326, 23.403647699999986 ], [ 108.6385278, 23.4031319 ], [ 108.6380597, 23.402341099999962 ], [ 108.636469, 23.399884599999979 ], [ 108.6340255, 23.3960596 ], [ 108.6334441, 23.3951493 ], [ 108.6332738, 23.3948828 ], [ 108.6330095, 23.394475400000037 ], [ 108.6327525, 23.394079400000017 ], [ 108.6319703, 23.392874 ], [ 108.6314017, 23.3922635 ], [ 108.6306769, 23.391641699999987 ], [ 108.629927, 23.391180299999984 ], [ 108.6288967, 23.390473499999977 ], [ 108.627796800000013, 23.38971090000004 ], [ 108.626041900000018, 23.388550799999987 ], [ 108.6231182, 23.386565499999985 ], [ 108.6204157, 23.384739499999988 ], [ 108.6185157, 23.383448600000012 ], [ 108.6182159, 23.383135 ], [ 108.6180529, 23.38295079999995 ], [ 108.6178624, 23.382660800000046 ], [ 108.6176795, 23.38225360000002 ], [ 108.6175889, 23.381872599999973 ], [ 108.6175617, 23.3815692 ], [ 108.6175517, 23.381310500000012 ], [ 108.6177885, 23.379071899999964 ], [ 108.6179088, 23.3777797 ], [ 108.6179515, 23.3773107 ], [ 108.6180101, 23.376775700000042 ], [ 108.6180878, 23.376067200000033 ], [ 108.6185688, 23.37109359999998 ], [ 108.6186464, 23.370337200000019 ], [ 108.6187117, 23.369962900000026 ], [ 108.6188123, 23.369612800000013 ], [ 108.6188989, 23.369392200000011 ], [ 108.6190339, 23.369135200000041 ], [ 108.6192755, 23.3687495 ], [ 108.6195778, 23.368350399999979 ], [ 108.6198435, 23.368004 ], [ 108.6200758, 23.367711600000032 ], [ 108.6208785, 23.366677899999985 ], [ 108.622514, 23.364528399999973 ], [ 108.6229906, 23.364091 ], [ 108.6230423, 23.364043600000016 ], [ 108.6237892, 23.363568899999979 ], [ 108.6246745, 23.36310230000003 ], [ 108.6255162, 23.362654599999981 ], [ 108.6272946, 23.361632399999959 ], [ 108.6280757, 23.361281399999974 ], [ 108.6285903, 23.360980700000024 ], [ 108.6293723, 23.360250399999948 ], [ 108.6295195, 23.3601168 ], [ 108.6296655, 23.359984500000014 ], [ 108.6304814, 23.359244500000035 ], [ 108.631789, 23.357981099999961 ], [ 108.6323313, 23.357341399999989 ], [ 108.6328534, 23.356655700000026 ], [ 108.6336983, 23.35545379999996 ], [ 108.6348594, 23.3539013 ], [ 108.6349795, 23.353694600000011 ], [ 108.6351341, 23.353428399999974 ], [ 108.6354296, 23.352737399999956 ], [ 108.6362329, 23.350859199999977 ], [ 108.6367651, 23.349771499999971 ], [ 108.6370797, 23.34902049999997 ], [ 108.6373575, 23.348437200000035 ], [ 108.6374945, 23.348145100000014 ], [ 108.6377627, 23.3477177 ], [ 108.6381596, 23.3472587 ], [ 108.6391341, 23.34613190000001 ], [ 108.6400408, 23.3450899 ], [ 108.6405576, 23.3445035 ], [ 108.6409714, 23.344033799999973 ], [ 108.6412735, 23.3436348 ], [ 108.6414231, 23.343431799999941 ], [ 108.6418813, 23.3426309 ], [ 108.6421091, 23.342068299999958 ], [ 108.6424562, 23.341328499999985 ], [ 108.6426208, 23.341076399999963 ], [ 108.6426848, 23.340996400000023 ], [ 108.64283420000001, 23.340809499999985 ], [ 108.643225, 23.3404726 ], [ 108.643736, 23.340152500000013 ], [ 108.6439632, 23.3400344 ], [ 108.6444723, 23.339688 ], [ 108.6449324, 23.339273399999982 ], [ 108.6455775, 23.338558900000042 ], [ 108.6456577, 23.338464899999973 ], [ 108.6457683, 23.338335200000028 ], [ 108.646126, 23.3379245 ], [ 108.64651520000001, 23.337511399999975 ], [ 108.646943, 23.336973299999979 ], [ 108.6471763, 23.336598700000035 ], [ 108.6473738, 23.336166300000027 ], [ 108.6480449, 23.334512499999981 ], [ 108.648766, 23.3327626 ], [ 108.6489377, 23.3322739 ], [ 108.6489596, 23.331961300000014 ], [ 108.649006300000011, 23.3312965 ], [ 108.6489105, 23.329084199999961 ], [ 108.648972, 23.328739899999967 ], [ 108.6490321, 23.328391700000026 ], [ 108.649199600000017, 23.32796860000003 ], [ 108.6503786, 23.325838899999972 ], [ 108.6525774, 23.322073800000048 ], [ 108.6531612, 23.3214116 ], [ 108.654552700000011, 23.3196251 ], [ 108.6556216, 23.318175600000014 ], [ 108.6569211, 23.31579880000001 ], [ 108.6588336, 23.312500300000046 ], [ 108.6619994, 23.307014299999963 ], [ 108.6622448, 23.3064681 ], [ 108.6623406, 23.306264 ], [ 108.6624579, 23.305902200000038 ], [ 108.6625141, 23.30544040000002 ], [ 108.6623056, 23.30401089999998 ], [ 108.6622433, 23.3033104 ], [ 108.6622218, 23.297563600000039 ], [ 108.6622927, 23.296977200000057 ], [ 108.6630376, 23.293328300000034 ], [ 108.664336, 23.28607660000004 ], [ 108.6643902, 23.2855858 ], [ 108.6645507, 23.2849417 ], [ 108.66492580000002, 23.2841596 ], [ 108.6656567, 23.2832088 ], [ 108.6667477, 23.281863200000032 ], [ 108.66679520000001, 23.281804600000061 ], [ 108.6671145, 23.281384200000026 ], [ 108.6675239, 23.280851099999953 ], [ 108.6682514, 23.2799034 ], [ 108.6705031, 23.2770876 ], [ 108.6707234, 23.276778 ], [ 108.6708629, 23.276341299999984 ], [ 108.670938, 23.2759441 ], [ 108.6709316, 23.267376899999956 ], [ 108.6709234, 23.265750900000022 ], [ 108.6709212, 23.265330799999955 ], [ 108.6709198, 23.265047299999988 ], [ 108.6709654, 23.264841199999978 ], [ 108.6711174, 23.264155 ], [ 108.6716157, 23.26336790000002 ], [ 108.6727533, 23.2621138 ], [ 108.6740488, 23.260693899999954 ], [ 108.6742794, 23.2604105 ], [ 108.6745262, 23.2599743 ], [ 108.6746389, 23.259697099999961 ], [ 108.6747247, 23.2593706 ], [ 108.6747297, 23.259236699999988 ], [ 108.6747381, 23.259010799999956 ], [ 108.674722, 23.258715099999986 ], [ 108.674682, 23.258444599999969 ], [ 108.6737843, 23.255212899999975 ], [ 108.673289600000018, 23.253496 ], [ 108.6716591, 23.247789699999988 ], [ 108.6699736, 23.2414267 ], [ 108.6692408, 23.2398779 ], [ 108.6685079, 23.238682700000016 ], [ 108.6682514, 23.2374033 ], [ 108.6681425, 23.236456400000012 ], [ 108.6682355, 23.235811799999983 ], [ 108.6685221, 23.235217400000042 ], [ 108.6689794, 23.234721199999942 ], [ 108.6703312, 23.2336368 ], [ 108.6715436, 23.23271 ], [ 108.672874, 23.231734 ], [ 108.6746657, 23.2306101 ], [ 108.6755753, 23.2300308 ], [ 108.6766934, 23.229318600000028 ], [ 108.6800301, 23.2278496 ], [ 108.6803302, 23.227603 ], [ 108.6805268, 23.227280299999975 ], [ 108.6805988, 23.226916299999985 ], [ 108.6805384, 23.2265506 ], [ 108.680352, 23.22622279999996 ], [ 108.6797511, 23.225660800000021 ], [ 108.6794682, 23.225303600000032 ], [ 108.6793236, 23.224882200000017 ], [ 108.6793324, 23.224440399999974 ], [ 108.6794937, 23.2240241 ], [ 108.6807382, 23.221707099999982 ], [ 108.6810251, 23.2214395 ], [ 108.6813924, 23.221274300000012 ], [ 108.6817984, 23.2212304 ], [ 108.6821973, 23.221312700000045 ], [ 108.6848044, 23.222505800000011 ], [ 108.6855122, 23.222694 ], [ 108.6862489, 23.222683900000025 ], [ 108.6869502, 23.222476199999988 ], [ 108.687948, 23.221864899999989 ], [ 108.6885381, 23.22159869999998 ], [ 108.6889136, 23.2214606 ], [ 108.6898584, 23.2212825 ], [ 108.6908126, 23.221411299999971 ], [ 108.6917031, 23.22159869999998 ], [ 108.6935699, 23.222121199999968 ], [ 108.6945355, 23.222397300000011 ], [ 108.6950827, 23.222476199999988 ], [ 108.6957779, 23.222527099999976 ], [ 108.6964707, 23.222453500000029 ], [ 108.6970586, 23.2222421 ], [ 108.697571700000012, 23.2219043 ], [ 108.6988914, 23.221046499999975 ], [ 108.6996102, 23.2206521 ], [ 108.7002432, 23.220109899999965 ], [ 108.700418, 23.2198014 ], [ 108.7004931, 23.2194606 ], [ 108.7004626, 23.219114 ], [ 108.7003291, 23.218788599999989 ], [ 108.6994493, 23.217753399999982 ], [ 108.6991195, 23.217338 ], [ 108.698908, 23.216862 ], [ 108.698827, 23.216353199999972 ], [ 108.6989021, 23.215406699999978 ], [ 108.6990631, 23.214351599999983 ], [ 108.699147, 23.214050399999984 ], [ 108.6993078, 23.213776899999981 ], [ 108.6995361, 23.213547499999986 ], [ 108.6999005, 23.213335799999985 ], [ 108.7003167, 23.2132326 ], [ 108.7007475, 23.213247299999967 ], [ 108.7016058, 23.213217700000026 ], [ 108.7021435, 23.2131096 ], [ 108.702659600000018, 23.212933599999982 ], [ 108.702974, 23.212697700000046 ], [ 108.7031949, 23.21238470000003 ], [ 108.7033009, 23.212024599999978 ], [ 108.703311, 23.211685500000016 ], [ 108.70321, 23.2113592 ], [ 108.7030074, 23.2110757 ], [ 108.7027216, 23.210861099999988 ], [ 108.7021851, 23.210161 ], [ 108.7016058, 23.209382 ], [ 108.701273200000017, 23.208800200000017 ], [ 108.7005973, 23.206946400000017 ], [ 108.7004042, 23.2064632 ], [ 108.7003943, 23.206040399999988 ], [ 108.7005353, 23.205637800000058 ], [ 108.7008119, 23.205299700000037 ], [ 108.70152, 23.204925 ], [ 108.7019813, 23.2046488 ], [ 108.7022258, 23.204398199999989 ], [ 108.702367, 23.204087500000011 ], [ 108.702389, 23.203751499999985 ], [ 108.7023246, 23.203228899999971 ], [ 108.7020993, 23.20260710000003 ], [ 108.701973200000012, 23.2021321 ], [ 108.7020669, 23.201926899999975 ], [ 108.7021857, 23.201812599999986 ], [ 108.7023925, 23.201734 ], [ 108.703186, 23.201977 ], [ 108.704737, 23.202227 ], [ 108.7055909, 23.202321400000027 ], [ 108.706927, 23.2023875 ], [ 108.708169, 23.202614 ], [ 108.7090894, 23.202744099999972 ], [ 108.7094078, 23.202840699999964 ], [ 108.709666, 23.202919 ], [ 108.7108, 23.203441 ], [ 108.711837, 23.204202 ], [ 108.712621, 23.204994 ], [ 108.714164, 23.206339 ], [ 108.715664, 23.206937 ], [ 108.716877, 23.207198 ], [ 108.718046, 23.207409 ], [ 108.723064, 23.208433 ], [ 108.724542, 23.209051 ], [ 108.725426, 23.209709 ], [ 108.726235, 23.21057 ], [ 108.727831, 23.212638 ], [ 108.728837, 23.213745 ], [ 108.730263, 23.214576 ], [ 108.732634, 23.215449 ], [ 108.734824, 23.216166 ], [ 108.736189, 23.216423 ], [ 108.73777, 23.216243 ], [ 108.739294, 23.215832 ], [ 108.741813, 23.215118 ], [ 108.743288, 23.214674 ], [ 108.744387, 23.214156 ], [ 108.745549, 23.213259 ], [ 108.7463296, 23.212767699999986 ], [ 108.7468487, 23.212551199999954 ], [ 108.7472436, 23.212473200000023 ], [ 108.7476033, 23.21243310000003 ], [ 108.7481888, 23.212396499999965 ], [ 108.7487276, 23.212454 ], [ 108.7492636, 23.212568499999989 ], [ 108.7496126, 23.212664 ], [ 108.753460500000017, 23.213759199999981 ], [ 108.754387600000015, 23.213993500000036 ], [ 108.7545022, 23.214016799999989 ], [ 108.7548829, 23.214094299999982 ], [ 108.7559082, 23.214263 ], [ 108.7566346, 23.214372699999984 ], [ 108.757574, 23.214511400000035 ], [ 108.7600655, 23.214870700000066 ], [ 108.7606548, 23.214997 ], [ 108.7611264, 23.2151807 ], [ 108.7615733, 23.215401100000015 ], [ 108.7620757, 23.215746099999983 ], [ 108.7622967, 23.2159851 ], [ 108.7626637, 23.216363399999953 ], [ 108.763154, 23.2168662 ], [ 108.7635306, 23.217181 ], [ 108.763899100000017, 23.21739030000003 ], [ 108.7645004, 23.2177015 ], [ 108.7647236, 23.217686500000017 ], [ 108.7670669, 23.217791800000011 ], [ 108.7687277, 23.2178664 ], [ 108.7704099, 23.217942 ], [ 108.7762669, 23.21816610000004 ], [ 108.7768865, 23.218189299999988 ], [ 108.7803243, 23.2183185 ], [ 108.7808154, 23.218337899999963 ], [ 108.7832322, 23.218433699999952 ], [ 108.7848751, 23.2184989 ], [ 108.786018400000017, 23.218540899999976 ], [ 108.788382500000012, 23.218627700000038 ], [ 108.790152300000017, 23.218688200000042 ], [ 108.7908799, 23.2187196 ], [ 108.791031, 23.218725499999973 ], [ 108.7920215, 23.218757599999982 ], [ 108.7937065, 23.218825699999982 ], [ 108.794846, 23.218871800000034 ], [ 108.7951387, 23.218883100000028 ], [ 108.7972892, 23.218965899999979 ], [ 108.7978909, 23.218984199999969 ], [ 108.7988201, 23.21903 ], [ 108.800246900000019, 23.21908440000005 ], [ 108.8011272, 23.219127199999964 ], [ 108.8013759, 23.21909140000005 ], [ 108.8023627, 23.218866600000013 ], [ 108.8025366, 23.218827 ], [ 108.8032113, 23.2187319 ], [ 108.8039362, 23.218629800000024 ], [ 108.8045438, 23.2185401 ], [ 108.8049993, 23.218472900000027 ], [ 108.8057845, 23.2183519 ], [ 108.806101500000011, 23.218311499999967 ], [ 108.806627, 23.2183117 ], [ 108.8069374, 23.218302800000011 ], [ 108.8074621, 23.218181600000019 ], [ 108.8078464, 23.218092599999959 ], [ 108.8079204, 23.21816580000004 ], [ 108.8085145, 23.219822500000042 ], [ 108.8089966, 23.22128560000003 ], [ 108.8098564, 23.2239112 ], [ 108.8107165, 23.226374900000039 ], [ 108.8107499, 23.226470899999978 ], [ 108.8112102, 23.227793299999988 ], [ 108.8115779, 23.2288109 ], [ 108.811825, 23.229694900000027 ], [ 108.8120793, 23.230643200000021 ], [ 108.8122414, 23.231261200000041 ], [ 108.8134339, 23.2358054 ], [ 108.813883, 23.236522 ], [ 108.81535, 23.238126 ], [ 108.8158948, 23.238411 ], [ 108.81639, 23.23867 ], [ 108.8164581, 23.23870570000005 ], [ 108.8179474, 23.239485300000052 ], [ 108.818243, 23.23964 ], [ 108.81916, 23.240262 ], [ 108.8201269, 23.2409774 ], [ 108.820517, 23.241266 ], [ 108.821588, 23.242116 ], [ 108.8229852, 23.243194600000031 ], [ 108.8231603, 23.243659900000011 ], [ 108.823495, 23.244669 ], [ 108.823878, 23.245759 ] ] } }
]
}
