{
"type": "FeatureCollection",
"name": "mapped_rescue_resources",
"crs": { "type": "name", "properties": { "name": "urn:ogc:def:crs:OGC:1.3:CRS84" } },
"features": [
{ "type": "Feature", "properties": { "resource_id": "osm_fire:gis_osm_pois_free:6343011808", "resource_name": "OSM未命名消防站", "resource_type": "mapped_fire_or_rescue_facility", "district_code": "450102", "district_name": "兴宁区", "osm_id": "6343011808", "source_layer": "gis_osm_pois_free", "operational_status": "source_listed_no_live_status", "eligible_for_distance": true, "eligible_for_dispatch": false, "data_source": "OpenStreetMap", "data_type": "real", "event_id": "nanning_flood_20260706_0707", "analysis_date": "2026-07-07", "calculation_version": "dispatch_v3", "source_commit": "074f2c6841becf074f14d90e06a2e9672972f1ec" }, "geometry": { "type": "Point", "coordinates": [ 108.3208405, 22.824751399999975 ] } },
{ "type": "Feature", "properties": { "resource_id": "osm_fire:gis_osm_pois_free:9189648692", "resource_name": "南宁园博园消防站", "resource_type": "mapped_fire_or_rescue_facility", "district_code": "450109", "district_name": "邕宁区", "osm_id": "9189648692", "source_layer": "gis_osm_pois_free", "operational_status": "source_listed_no_live_status", "eligible_for_distance": true, "eligible_for_dispatch": false, "data_source": "OpenStreetMap", "data_type": "real", "event_id": "nanning_flood_20260706_0707", "analysis_date": "2026-07-07", "calculation_version": "dispatch_v3", "source_commit": "074f2c6841becf074f14d90e06a2e9672972f1ec" }, "geometry": { "type": "Point", "coordinates": [ 108.4723296, 22.7168858 ] } },
{ "type": "Feature", "properties": { "resource_id": "osm_fire:gis_osm_pois_free:10065706398", "resource_name": "邕宁区综合应急救援大队", "resource_type": "mapped_fire_or_rescue_facility", "district_code": "450109", "district_name": "邕宁区", "osm_id": "10065706398", "source_layer": "gis_osm_pois_free", "operational_status": "source_listed_no_live_status", "eligible_for_distance": true, "eligible_for_dispatch": false, "data_source": "OpenStreetMap", "data_type": "real", "event_id": "nanning_flood_20260706_0707", "analysis_date": "2026-07-07", "calculation_version": "dispatch_v3", "source_commit": "074f2c6841becf074f14d90e06a2e9672972f1ec" }, "geometry": { "type": "Point", "coordinates": [ 108.4631777, 22.7891416 ] } },
{ "type": "Feature", "properties": { "resource_id": "osm_fire:gis_osm_pois_a_free:837966596", "resource_name": "广西壮族自治区综合应急救援基地", "resource_type": "mapped_fire_or_rescue_facility", "district_code": "450108", "district_name": "良庆区", "osm_id": "837966596", "source_layer": "gis_osm_pois_a_free", "operational_status": "source_listed_no_live_status", "eligible_for_distance": true, "eligible_for_dispatch": false, "data_source": "OpenStreetMap", "data_type": "real", "event_id": "nanning_flood_20260706_0707", "analysis_date": "2026-07-07", "calculation_version": "dispatch_v3", "source_commit": "074f2c6841becf074f14d90e06a2e9672972f1ec" }, "geometry": { "type": "Point", "coordinates": [ 108.379888159194024, 22.623017519590796 ] } },
{ "type": "Feature", "properties": { "resource_id": "osm_fire:gis_osm_pois_a_free:1013688334", "resource_name": "大沙田消防站", "resource_type": "mapped_fire_or_rescue_facility", "district_code": "450108", "district_name": "良庆区", "osm_id": "1013688334", "source_layer": "gis_osm_pois_a_free", "operational_status": "source_listed_no_live_status", "eligible_for_distance": true, "eligible_for_dispatch": false, "data_source": "OpenStreetMap", "data_type": "real", "event_id": "nanning_flood_20260706_0707", "analysis_date": "2026-07-07", "calculation_version": "dispatch_v3", "source_commit": "074f2c6841becf074f14d90e06a2e9672972f1ec" }, "geometry": { "type": "Point", "coordinates": [ 108.321327309445394, 22.758599588222712 ] } },
{ "type": "Feature", "properties": { "resource_id": "osm_fire:gis_osm_pois_a_free:1035016005", "resource_name": "仙葫消防救援站", "resource_type": "mapped_fire_or_rescue_facility", "district_code": "450103", "district_name": "青秀区", "osm_id": "1035016005", "source_layer": "gis_osm_pois_a_free", "operational_status": "source_listed_no_live_status", "eligible_for_distance": true, "eligible_for_dispatch": false, "data_source": "OpenStreetMap", "data_type": "real", "event_id": "nanning_flood_20260706_0707", "analysis_date": "2026-07-07", "calculation_version": "dispatch_v3", "source_commit": "074f2c6841becf074f14d90e06a2e9672972f1ec" }, "geometry": { "type": "Point", "coordinates": [ 108.49290531972342, 22.773833054591986 ] } },
{ "type": "Feature", "properties": { "resource_id": "osm_fire:gis_osm_pois_a_free:1099478434", "resource_name": "南宁市消防支队邕宁区大队", "resource_type": "mapped_fire_or_rescue_facility", "district_code": "450109", "district_name": "邕宁区", "osm_id": "1099478434", "source_layer": "gis_osm_pois_a_free", "operational_status": "source_listed_no_live_status", "eligible_for_distance": true, "eligible_for_dispatch": false, "data_source": "OpenStreetMap", "data_type": "real", "event_id": "nanning_flood_20260706_0707", "analysis_date": "2026-07-07", "calculation_version": "dispatch_v3", "source_commit": "074f2c6841becf074f14d90e06a2e9672972f1ec" }, "geometry": { "type": "Point", "coordinates": [ 108.463342139293431, 22.788971949802047 ] } },
{ "type": "Feature", "properties": { "resource_id": "osm_fire:gis_osm_pois_a_free:1148221610", "resource_name": "南宁市消防支队安宁中队", "resource_type": "mapped_fire_or_rescue_facility", "district_code": "450107", "district_name": "西乡塘区", "osm_id": "1148221610", "source_layer": "gis_osm_pois_a_free", "operational_status": "source_listed_no_live_status", "eligible_for_distance": true, "eligible_for_dispatch": false, "data_source": "OpenStreetMap", "data_type": "real", "event_id": "nanning_flood_20260706_0707", "analysis_date": "2026-07-07", "calculation_version": "dispatch_v3", "source_commit": "074f2c6841becf074f14d90e06a2e9672972f1ec" }, "geometry": { "type": "Point", "coordinates": [ 108.310977256235873, 22.887434915577028 ] } },
{ "type": "Feature", "properties": { "resource_id": "osm_fire:gis_osm_pois_a_free:1212185600", "resource_name": "南宁消防支队特勤一中队", "resource_type": "mapped_fire_or_rescue_facility", "district_code": "450103", "district_name": "青秀区", "osm_id": "1212185600", "source_layer": "gis_osm_pois_a_free", "operational_status": "source_listed_no_live_status", "eligible_for_distance": true, "eligible_for_dispatch": false, "data_source": "OpenStreetMap", "data_type": "real", "event_id": "nanning_flood_20260706_0707", "analysis_date": "2026-07-07", "calculation_version": "dispatch_v3", "source_commit": "074f2c6841becf074f14d90e06a2e9672972f1ec" }, "geometry": { "type": "Point", "coordinates": [ 108.376094231000934, 22.829149394636705 ] } },
{ "type": "Feature", "properties": { "resource_id": "osm_fire:gis_osm_pois_a_free:1213284261", "resource_name": "南宁市良庆区综合应急救援大队", "resource_type": "mapped_fire_or_rescue_facility", "district_code": "450108", "district_name": "良庆区", "osm_id": "1213284261", "source_layer": "gis_osm_pois_a_free", "operational_status": "source_listed_no_live_status", "eligible_for_distance": true, "eligible_for_dispatch": false, "data_source": "OpenStreetMap", "data_type": "real", "event_id": "nanning_flood_20260706_0707", "analysis_date": "2026-07-07", "calculation_version": "dispatch_v3", "source_commit": "074f2c6841becf074f14d90e06a2e9672972f1ec" }, "geometry": { "type": "Point", "coordinates": [ 108.384682750127396, 22.753740150355004 ] } },
{ "type": "Feature", "properties": { "resource_id": "osm_fire:gis_osm_pois_a_free:1417148051", "resource_name": "南宁经济技术开发区空港消防救援站", "resource_type": "mapped_fire_or_rescue_facility", "district_code": "450105", "district_name": "江南区", "osm_id": "1417148051", "source_layer": "gis_osm_pois_a_free", "operational_status": "source_listed_no_live_status", "eligible_for_distance": true, "eligible_for_dispatch": false, "data_source": "OpenStreetMap", "data_type": "real", "event_id": "nanning_flood_20260706_0707", "analysis_date": "2026-07-07", "calculation_version": "dispatch_v3", "source_commit": "074f2c6841becf074f14d90e06a2e9672972f1ec" }, "geometry": { "type": "Point", "coordinates": [ 108.217174143744401, 22.65456084271014 ] } },
{ "type": "Feature", "properties": { "resource_id": "osm_fire:gis_osm_pois_a_free:1499903994", "resource_name": "OSM未命名消防站", "resource_type": "mapped_fire_or_rescue_facility", "district_code": "450103", "district_name": "青秀区", "osm_id": "1499903994", "source_layer": "gis_osm_pois_a_free", "operational_status": "source_listed_no_live_status", "eligible_for_distance": true, "eligible_for_dispatch": false, "data_source": "OpenStreetMap", "data_type": "real", "event_id": "nanning_flood_20260706_0707", "analysis_date": "2026-07-07", "calculation_version": "dispatch_v3", "source_commit": "074f2c6841becf074f14d90e06a2e9672972f1ec" }, "geometry": { "type": "Point", "coordinates": [ 108.381330851417133, 22.802173100403643 ] } },
{ "type": "Feature", "properties": { "resource_id": "rescue_by_001", "resource_name": "宾阳县应急救援队", "resource_type": "user_confirmed_operational_rescue_point", "district_code": "450126", "district_name": "宾阳县", "osm_id": "", "source_layer": "user_manual_lookup", "operational_status": "operational", "eligible_for_distance": true, "eligible_for_dispatch": true, "data_source": "User-confirmed map lookup", "data_type": "real", "event_id": "nanning_flood_20260706_0707", "analysis_date": "2026-07-07", "calculation_version": "dispatch_v3", "source_commit": "074f2c6841becf074f14d90e06a2e9672972f1ec" }, "geometry": { "type": "Point", "coordinates": [ 108.816889422689428, 23.238932997045556 ] } },
{ "type": "Feature", "properties": { "resource_id": "rescue_hz_001", "resource_name": "横州市消防救援大队（横州站）", "resource_type": "user_confirmed_operational_rescue_point", "district_code": "450181", "district_name": "横州市", "osm_id": "", "source_layer": "user_manual_lookup", "operational_status": "operational", "eligible_for_distance": true, "eligible_for_dispatch": true, "data_source": "User-confirmed map lookup", "data_type": "real", "event_id": "nanning_flood_20260706_0707", "analysis_date": "2026-07-07", "calculation_version": "dispatch_v3", "source_commit": "074f2c6841becf074f14d90e06a2e9672972f1ec" }, "geometry": { "type": "Point", "coordinates": [ 109.291514014135345, 22.706122035459536 ] } },
{ "type": "Feature", "properties": { "resource_id": "rescue_by_002", "resource_name": "宾阳县黎塘消防救援站", "resource_type": "user_confirmed_operational_rescue_point", "district_code": "450126", "district_name": "宾阳县", "osm_id": "", "source_layer": "user_manual_lookup", "operational_status": "operational", "eligible_for_distance": true, "eligible_for_dispatch": true, "data_source": "User-confirmed map lookup", "data_type": "real", "event_id": "nanning_flood_20260706_0707", "analysis_date": "2026-07-07", "calculation_version": "dispatch_v3", "source_commit": "074f2c6841becf074f14d90e06a2e9672972f1ec" }, "geometry": { "type": "Point", "coordinates": [ 109.071413988485347, 23.189732157098756 ] } }
]
}
