{
"type": "FeatureCollection",
"name": "personnel_transfer_routes",
"crs": { "type": "name", "properties": { "name": "urn:ogc:def:crs:OGC:1.3:CRS84" } },
"features": [
{ "type": "Feature", "properties": { "evacuation_plan_id": "evac_rescue_case_01", "case_id": "rescue_case_01", "settlement_record_id": "settlements:gis_osm_places_free:7997751774:village", "settlement_name": "新宾", "district_code": "450126", "local_population_2020_buffer_estimate": 13320.722450256348, "shelter_id": "shelter_nn_nanhu_001", "shelter_name": "南湖公园应急避难场所", "capacity_persons": 200000, "operational_open_status": "not_confirmed_for_event", "route_status": "route_found", "evacuation_route_status": "route_found", "network_distance_m": 83263.565542835466, "total_route_distance_m": 83369.128229971073, "road_record_ids": [ "roads:gis_osm_roads_free:395693017:tertiary", "roads:gis_osm_roads_free:629194326:tertiary", "roads:gis_osm_roads_free:1356626920:tertiary", "roads:gis_osm_roads_free:527277192:secondary", "roads:gis_osm_roads_free:907596418:tertiary", "roads:gis_osm_roads_free:615078019:tertiary", "roads:gis_osm_roads_free:907596421:residential", "roads:gis_osm_roads_free:907596420:unclassified", "roads:gis_osm_roads_free:615078009:unclassified", "roads:gis_osm_roads_free:907596406:tertiary", "roads:gis_osm_roads_free:395693018:trunk", "roads:gis_osm_roads_free:991511361:secondary", "roads:gis_osm_roads_free:907596397:primary", "roads:gis_osm_roads_free:907596394:motorway_link", "roads:gis_osm_roads_free:555399119:motorway_link", "roads:gis_osm_roads_free:1356622881:motorway", "roads:gis_osm_roads_free:907596409:motorway", "roads:gis_osm_roads_free:555399191:motorway", "roads:gis_osm_roads_free:1126002047:motorway", "roads:gis_osm_roads_free:1126002049:motorway", "roads:gis_osm_roads_free:555399162:motorway", "roads:gis_osm_roads_free:1490150291:motorway", "roads:gis_osm_roads_free:1490150289:motorway", "roads:gis_osm_roads_free:1126002053:motorway", "roads:gis_osm_roads_free:1126002052:motorway", "roads:gis_osm_roads_free:555399193:motorway", "roads:gis_osm_roads_free:1490150295:motorway", "roads:gis_osm_roads_free:555399196:motorway", "roads:gis_osm_roads_free:1490150297:motorway", "roads:gis_osm_roads_free:555399172:motorway", "roads:gis_osm_roads_free:1490150299:motorway", "roads:gis_osm_roads_free:1490150301:motorway", "roads:gis_osm_roads_free:1490150303:motorway", "roads:gis_osm_roads_free:1490150304:motorway", "roads:gis_osm_roads_free:1490150307:motorway", "roads:gis_osm_roads_free:1490150310:motorway", "roads:gis_osm_roads_free:1490150313:motorway", "roads:gis_osm_roads_free:555399194:motorway", "roads:gis_osm_roads_free:1490150312:motorway", "roads:gis_osm_roads_free:555399167:motorway", "roads:gis_osm_roads_free:751741995:motorway", "roads:gis_osm_roads_free:1465269950:motorway", "roads:gis_osm_roads_free:1465269949:motorway", "roads:gis_osm_roads_free:751741993:motorway", "roads:gis_osm_roads_free:1424422405:motorway", "roads:gis_osm_roads_free:865643158:motorway_link", "roads:gis_osm_roads_free:865643034:motorway_link", "roads:gis_osm_roads_free:865643156:motorway_link", "roads:gis_osm_roads_free:865643154:motorway", "roads:gis_osm_roads_free:865643131:motorway", "roads:gis_osm_roads_free:865643130:motorway", "roads:gis_osm_roads_free:1531599583:motorway", "roads:gis_osm_roads_free:1531599586:motorway", "roads:gis_osm_roads_free:865643127:motorway", "roads:gis_osm_roads_free:865643119:motorway", "roads:gis_osm_roads_free:865643115:motorway", "roads:gis_osm_roads_free:865643114:motorway", "roads:gis_osm_roads_free:865643113:motorway", "roads:gis_osm_roads_free:865643112:motorway", "roads:gis_osm_roads_free:865643102:motorway", "roads:gis_osm_roads_free:865643103:motorway", "roads:gis_osm_roads_free:865643097:motorway", "roads:gis_osm_roads_free:865643100:motorway", "roads:gis_osm_roads_free:865643093:motorway", "roads:gis_osm_roads_free:865643095:motorway", "roads:gis_osm_roads_free:865643092:motorway", "roads:gis_osm_roads_free:865643090:motorway", "roads:gis_osm_roads_free:865643089:motorway", "roads:gis_osm_roads_free:865643088:motorway", "roads:gis_osm_roads_free:865643087:motorway", "roads:gis_osm_roads_free:865643091:motorway", "roads:gis_osm_roads_free:865643086:motorway", "roads:gis_osm_roads_free:865643085:motorway", "roads:gis_osm_roads_free:865643084:motorway", "roads:gis_osm_roads_free:865643083:motorway", "roads:gis_osm_roads_free:865643082:motorway", "roads:gis_osm_roads_free:865643081:motorway", "roads:gis_osm_roads_free:865643080:motorway", "roads:gis_osm_roads_free:865643079:motorway", "roads:gis_osm_roads_free:865643078:motorway", "roads:gis_osm_roads_free:577707930:motorway", "roads:gis_osm_roads_free:865643055:motorway", "roads:gis_osm_roads_free:865643053:motorway", "roads:gis_osm_roads_free:1295271371:motorway", "roads:gis_osm_roads_free:1295271373:motorway", "roads:gis_osm_roads_free:577707931:motorway_link", "roads:gis_osm_roads_free:1360257716:motorway_link", "roads:gis_osm_roads_free:1295271381:tertiary", "roads:gis_osm_roads_free:1295271427:trunk_link", "roads:gis_osm_roads_free:851821257:trunk", "roads:gis_osm_roads_free:460781879:trunk", "roads:gis_osm_roads_free:851821256:trunk", "roads:gis_osm_roads_free:1039236962:trunk", "roads:gis_osm_roads_free:1039236961:trunk", "roads:gis_osm_roads_free:388989322:trunk", "roads:gis_osm_roads_free:396094126:primary", "roads:gis_osm_roads_free:1422453798:secondary", "roads:gis_osm_roads_free:1422453793:secondary", "roads:gis_osm_roads_free:1422453794:secondary", "roads:gis_osm_roads_free:1422453795:secondary", "roads:gis_osm_roads_free:1422453796:secondary", "roads:gis_osm_roads_free:460781882:secondary", "roads:gis_osm_roads_free:388685773:secondary", "roads:gis_osm_roads_free:395689319:primary", "roads:gis_osm_roads_free:839655883:primary", "roads:gis_osm_roads_free:839655882:primary", "roads:gis_osm_roads_free:839655981:residential", "roads:gis_osm_roads_free:808502308:tertiary", "roads:gis_osm_roads_free:1531565084:tertiary", "roads:gis_osm_roads_free:388819725:unclassified", "roads:gis_osm_roads_free:915747902:secondary", "roads:gis_osm_roads_free:915747900:secondary", "roads:gis_osm_roads_free:1044402466:secondary", "roads:gis_osm_roads_free:389884879:secondary", "roads:gis_osm_roads_free:1114829482:secondary", "roads:gis_osm_roads_free:1114829481:secondary", "roads:gis_osm_roads_free:390815884:primary", "roads:gis_osm_roads_free:923687057:primary", "roads:gis_osm_roads_free:916682119:unclassified", "roads:gis_osm_roads_free:652143938:unclassified", "roads:gis_osm_roads_free:652143937:unclassified" ], "routing_rule": "exclude_all_suspected_affected_roads", "event_id": "nanning_flood_20260706_0707", "analysis_date": "2026-07-07", "data_type": "real", "calculation_version": "dispatch_v3", "data_source": "SmartbiData fixed shared inputs", "source_commit": "074f2c6841becf074f14d90e06a2e9672972f1ec" }, "geometry": { "type": "LineString", "coordinates": [ [ 108.823878, 23.245759 ], [ 108.823495, 23.244669 ], [ 108.8231603, 23.243659900000011 ], [ 108.8229852, 23.243194600000031 ], [ 108.821588, 23.242116 ], [ 108.820517, 23.241266 ], [ 108.8201269, 23.2409774 ], [ 108.81916, 23.240262 ], [ 108.818243, 23.23964 ], [ 108.8179474, 23.239485300000052 ], [ 108.8164581, 23.23870570000005 ], [ 108.81639, 23.23867 ], [ 108.8158948, 23.238411 ], [ 108.81535, 23.238126 ], [ 108.813883, 23.236522 ], [ 108.8134339, 23.2358054 ], [ 108.8133322, 23.235828400000042 ], [ 108.8131973, 23.235332099999965 ], [ 108.812939900000018, 23.234288400000057 ], [ 108.8125956, 23.2330733 ], [ 108.8122739, 23.231796099999976 ], [ 108.8121489, 23.231282299999982 ], [ 108.8119796, 23.230586400000035 ], [ 108.8119682, 23.2305395 ], [ 108.8117044, 23.229513600000015 ], [ 108.811488800000021, 23.228804 ], [ 108.8113311, 23.228378199999966 ], [ 108.8107874, 23.226947200000012 ], [ 108.8106434, 23.226504 ], [ 108.8106122, 23.226408 ], [ 108.810382, 23.225699499999983 ], [ 108.8102726, 23.225359500000039 ], [ 108.8100313, 23.224741500000025 ], [ 108.809768, 23.223938400000016 ], [ 108.8097192, 23.223789399999955 ], [ 108.8091915, 23.2222963 ], [ 108.8089105, 23.221308600000054 ], [ 108.8088441, 23.221075100000036 ], [ 108.8084395, 23.2198443 ], [ 108.8083679, 23.219626300000066 ], [ 108.80783150000002, 23.2181893 ], [ 108.8078464, 23.218092599999959 ], [ 108.807339, 23.216583499999977 ], [ 108.8072221, 23.21623970000002 ], [ 108.8067336, 23.214997199999985 ], [ 108.80662430000001, 23.214848600000028 ], [ 108.806542, 23.214636500000019 ], [ 108.805227, 23.214362900000033 ], [ 108.8052494, 23.212982400000026 ], [ 108.805125, 23.210646899999954 ], [ 108.805096500000019, 23.210358099999986 ], [ 108.8031368, 23.2083357 ], [ 108.801551300000014, 23.206551199999957 ], [ 108.8014579, 23.206451799999964 ], [ 108.8010544, 23.206094 ], [ 108.800474, 23.205651600000046 ], [ 108.7986275, 23.204298800000032 ], [ 108.7985006, 23.204084900000023 ], [ 108.7984722, 23.2040126 ], [ 108.797567, 23.203943 ], [ 108.7952346, 23.203777299999988 ], [ 108.7940734, 23.203643400000026 ], [ 108.792754700000017, 23.2035361 ], [ 108.7917254, 23.203457800000024 ], [ 108.791535, 23.20343669999998 ], [ 108.791166, 23.203353 ], [ 108.7907376, 23.2032624 ], [ 108.789508500000011, 23.2029239 ], [ 108.7886435, 23.202549700000073 ], [ 108.7880607, 23.202220299999972 ], [ 108.7876818, 23.202034300000015 ], [ 108.7873591, 23.201870399999979 ], [ 108.7865307, 23.2013633 ], [ 108.7858051, 23.2008355 ], [ 108.7852896, 23.200460500000023 ], [ 108.7844577, 23.1997385 ], [ 108.7839284, 23.199278099999979 ], [ 108.782941, 23.19850839999998 ], [ 108.7819863, 23.197827299999986 ], [ 108.7811036, 23.197249099999979 ], [ 108.7803599, 23.196873499999988 ], [ 108.7794431, 23.196288699999979 ], [ 108.77929, 23.196220899999968 ], [ 108.7791402, 23.196179299999972 ], [ 108.7786388, 23.196073599999981 ], [ 108.778126, 23.196110899999976 ], [ 108.7776489, 23.196287799999961 ], [ 108.776953, 23.196732499999964 ], [ 108.7758446, 23.19736450000001 ], [ 108.7749349, 23.1978976 ], [ 108.7742626, 23.19825 ], [ 108.7734597, 23.198604900000028 ], [ 108.7733021, 23.1986854 ], [ 108.772461400000012, 23.199066199999962 ], [ 108.7704376, 23.1999595 ], [ 108.7674829, 23.201242299999986 ], [ 108.7670066, 23.201435599999982 ], [ 108.764161900000019, 23.202744099999972 ], [ 108.7627462, 23.203439399999976 ], [ 108.7600358, 23.205005 ], [ 108.7558779, 23.207506699999968 ], [ 108.752212, 23.2100779 ], [ 108.7507608, 23.211115300000021 ], [ 108.7489949, 23.212184 ], [ 108.7479007, 23.212797400000028 ], [ 108.7466927, 23.213448499999988 ], [ 108.745268300000021, 23.214128499999987 ], [ 108.744488700000019, 23.2144918 ], [ 108.743715, 23.214801900000033 ], [ 108.7424746, 23.21527840000001 ], [ 108.7401067, 23.216060700000018 ], [ 108.7379365, 23.216607 ], [ 108.7369273, 23.216819099999981 ], [ 108.735832300000013, 23.217031300000027 ], [ 108.7348607, 23.217174500000048 ], [ 108.7337281, 23.217278200000038 ], [ 108.7322019, 23.217344099999984 ], [ 108.7307816, 23.2173086 ], [ 108.72861140000002, 23.21714590000003 ], [ 108.7274616, 23.216951500000043 ], [ 108.7262976, 23.216692 ], [ 108.72452650000001, 23.2161669 ], [ 108.7234208, 23.215778500000035 ], [ 108.722117, 23.2152294 ], [ 108.7206929, 23.214491699999943 ], [ 108.7193083, 23.213703600000034 ], [ 108.7174434, 23.212665399999977 ], [ 108.71455450000002, 23.2110278 ], [ 108.7129876, 23.210225299999976 ], [ 108.711305, 23.209509899999958 ], [ 108.7099016, 23.209017 ], [ 108.7083235, 23.20858460000002 ], [ 108.7065674, 23.208020199999986 ], [ 108.7048634, 23.207316500000019 ], [ 108.7032796, 23.2064747 ], [ 108.7026421, 23.206097299999943 ], [ 108.7016099, 23.205405600000013 ], [ 108.7008037, 23.20487210000001 ], [ 108.6985596, 23.2032437 ], [ 108.6969234, 23.20211060000004 ], [ 108.6938778, 23.199888200000036 ], [ 108.6925823, 23.1988693 ], [ 108.6917664, 23.19811940000001 ], [ 108.6909326, 23.197283099999972 ], [ 108.6897292, 23.195806499999978 ], [ 108.68874820000002, 23.194438 ], [ 108.6865076, 23.190880800000031 ], [ 108.6860398, 23.1901798 ], [ 108.6854088, 23.189284500000042 ], [ 108.6842006, 23.18773460000001 ], [ 108.6839871, 23.187515599999966 ], [ 108.6832193, 23.186727899999969 ], [ 108.6819697, 23.185608899999977 ], [ 108.6796407, 23.184067600000013 ], [ 108.677162, 23.1825369 ], [ 108.6759719, 23.181897 ], [ 108.6752234, 23.181495 ], [ 108.6746984, 23.181239099999953 ], [ 108.674395100000012, 23.181091299999959 ], [ 108.6729298, 23.180427399999957 ], [ 108.6715372, 23.179784299999969 ], [ 108.6709964, 23.1795554 ], [ 108.6706398, 23.179404499999976 ], [ 108.6696332, 23.179067599999968 ], [ 108.668194, 23.178680299999986 ], [ 108.6668686, 23.178497599999989 ], [ 108.6652006, 23.1783607 ], [ 108.6634989, 23.1782995 ], [ 108.6632538, 23.178283500000045 ], [ 108.6604884, 23.1781703 ], [ 108.6592539, 23.17814779999998 ], [ 108.6587253, 23.178122799999986 ], [ 108.6549574, 23.177997699999963 ], [ 108.6532702, 23.1781258 ], [ 108.651342700000015, 23.178467599999983 ], [ 108.6503614, 23.1787288 ], [ 108.648967, 23.179078800000024 ], [ 108.6474966, 23.17950279999998 ], [ 108.6451673, 23.180085499999979 ], [ 108.6436325, 23.180309900000022 ], [ 108.641299, 23.1805515 ], [ 108.6405319, 23.1805762 ], [ 108.6404147, 23.1805716 ], [ 108.6402982, 23.180558500000014 ], [ 108.6401833, 23.180537 ], [ 108.6400706, 23.180507199999969 ], [ 108.6399539, 23.180466599999974 ], [ 108.6398414, 23.1804171 ], [ 108.6397338, 23.180359200000023 ], [ 108.6396319, 23.180293100000025 ], [ 108.6395363, 23.1802194 ], [ 108.6394479, 23.180138500000023 ], [ 108.6393672, 23.1800512 ], [ 108.6392947, 23.179957799999986 ], [ 108.639231, 23.1798593 ], [ 108.6391766, 23.1797561 ], [ 108.6391318, 23.1796491 ], [ 108.6391097, 23.179546700000021 ], [ 108.6390943, 23.1794433 ], [ 108.6390855, 23.1793392 ], [ 108.6390835, 23.179234899999958 ], [ 108.6390878, 23.179135399999979 ], [ 108.639098200000021, 23.179036200000013 ], [ 108.6391147, 23.1789378 ], [ 108.6391371, 23.1788404 ], [ 108.6396339, 23.177918 ], [ 108.639719, 23.1777133 ], [ 108.639858, 23.177384700000015 ], [ 108.639984, 23.177014900000046 ], [ 108.640027, 23.176665799999988 ], [ 108.6399926, 23.1753449 ], [ 108.6396974, 23.171704900000048 ], [ 108.6395838, 23.166202900000027 ], [ 108.639577, 23.165545799999986 ], [ 108.6395446, 23.163030899999985 ], [ 108.6395223, 23.161668499999958 ], [ 108.6394858, 23.159438799999975 ], [ 108.6394966, 23.158629900000037 ], [ 108.6395245, 23.158238399999959 ], [ 108.6395606, 23.1578474 ], [ 108.6396049, 23.157457199999961 ], [ 108.6396572, 23.157067799999972 ], [ 108.6397177, 23.1566794 ], [ 108.6397862, 23.156292100000012 ], [ 108.6398687, 23.155878099999978 ], [ 108.6399604, 23.155465700000033 ], [ 108.6400613, 23.155055200000024 ], [ 108.6401713, 23.154646600000021 ], [ 108.64029050000002, 23.1542402 ], [ 108.6404592, 23.153768100000011 ], [ 108.6406352, 23.1532983 ], [ 108.6408186, 23.152830900000016 ], [ 108.6412169, 23.15175870000002 ], [ 108.6421376, 23.14982269999998 ], [ 108.6437568, 23.1466446 ], [ 108.6444962, 23.145322300000014 ], [ 108.6447073, 23.144885199999958 ], [ 108.6449095, 23.1444445 ], [ 108.6451027, 23.1440004 ], [ 108.6452868, 23.14355310000003 ], [ 108.6454618, 23.143102600000017 ], [ 108.6456196, 23.142671799999981 ], [ 108.645769, 23.142238499999984 ], [ 108.6459101, 23.14180280000004 ], [ 108.6460426, 23.141364900000035 ], [ 108.646166800000017, 23.140924800000015 ], [ 108.6462823, 23.1404829 ], [ 108.6463894, 23.140039 ], [ 108.6464878, 23.139593499999961 ], [ 108.6465776, 23.139146499999971 ], [ 108.6466403, 23.1387178 ], [ 108.6466956, 23.1382882 ], [ 108.6467494, 23.137798 ], [ 108.6467935, 23.137306899999967 ], [ 108.6468278, 23.136815199999948 ], [ 108.6468523, 23.136323 ], [ 108.6468671, 23.135830399999946 ], [ 108.6468721, 23.1353377 ], [ 108.6468673, 23.134845 ], [ 108.6467922, 23.1334933 ], [ 108.646481, 23.129586299999989 ], [ 108.646465, 23.129357599999956 ], [ 108.6464569, 23.129128600000016 ], [ 108.6464569, 23.12889949999996 ], [ 108.646465, 23.128670399999979 ], [ 108.646481, 23.128441800000036 ], [ 108.6465085, 23.128186699999969 ], [ 108.6465459, 23.1279326 ], [ 108.6465933, 23.12768 ], [ 108.6466505, 23.1274291 ], [ 108.6467176, 23.127180200000058 ], [ 108.6467943, 23.126933799999968 ], [ 108.6468807, 23.12669 ], [ 108.6469766, 23.126449300000022 ], [ 108.6470818, 23.126211900000019 ], [ 108.6478865, 23.1243274 ], [ 108.6489701, 23.122186200000023 ], [ 108.6503434, 23.1194827 ], [ 108.65048, 23.119206700000024 ], [ 108.6506092, 23.1189277 ], [ 108.6507311, 23.118645900000015 ], [ 108.6508455, 23.118361499999963 ], [ 108.6509523, 23.118074700000022 ], [ 108.6510515, 23.1177855 ], [ 108.651155800000012, 23.1174514 ], [ 108.65125, 23.117114699999977 ], [ 108.651334, 23.1167758 ], [ 108.6514076, 23.116434800000018 ], [ 108.651470900000021, 23.116092099999978 ], [ 108.6515393, 23.115209 ], [ 108.6515287, 23.114857 ], [ 108.6515304, 23.114345499999981 ], [ 108.6515452, 23.111972299999969 ], [ 108.6515106, 23.111660200000049 ], [ 108.6514652, 23.111335 ], [ 108.6514108, 23.111011 ], [ 108.6513472, 23.110688399999987 ], [ 108.6512746, 23.1103674 ], [ 108.651193, 23.110048299999981 ], [ 108.6511024, 23.109731199999981 ], [ 108.651003, 23.109416299999985 ], [ 108.6508947, 23.109104 ], [ 108.6507779, 23.108794699999983 ], [ 108.6506524, 23.1084884 ], [ 108.6505183, 23.1081851 ], [ 108.6503758, 23.107885100000015 ], [ 108.6502249, 23.107588699999962 ], [ 108.6500657, 23.1072958 ], [ 108.649898400000012, 23.1070069 ], [ 108.649723, 23.106722 ], [ 108.6495397, 23.106441399999959 ], [ 108.6493561, 23.1061763 ], [ 108.640924200000015, 23.0968712 ], [ 108.640731700000018, 23.096658799999968 ], [ 108.6405441, 23.0964374 ], [ 108.6403643, 23.0962105 ], [ 108.6401927, 23.0959784 ], [ 108.6400294, 23.095741199999985 ], [ 108.6398746, 23.0954993 ], [ 108.6397284, 23.095252900000013 ], [ 108.639591, 23.09500220000001 ], [ 108.6394626, 23.094747499999972 ], [ 108.6393438, 23.0944906 ], [ 108.6392342, 23.094230300000017 ], [ 108.6391338, 23.093966900000023 ], [ 108.6390427, 23.093700600000034 ], [ 108.6389611, 23.09343170000006 ], [ 108.6388889, 23.093160500000028 ], [ 108.6388272, 23.092891400000013 ], [ 108.637501, 23.088930399999988 ], [ 108.6373819, 23.088494600000011 ], [ 108.6372558, 23.088060399999989 ], [ 108.6371227, 23.087628100000014 ], [ 108.6369827, 23.087197499999949 ], [ 108.6368358, 23.086769 ], [ 108.6366659, 23.086299 ], [ 108.6364877, 23.085831599999977 ], [ 108.6363012, 23.085367 ], [ 108.6361066, 23.084905200000069 ], [ 108.6359037, 23.084446400000036 ], [ 108.6356928, 23.083990699999976 ], [ 108.6354738, 23.08353820000001 ], [ 108.635246800000019, 23.08308909999997 ], [ 108.6350119, 23.082643399999938 ], [ 108.6345023, 23.08183409999998 ], [ 108.6343301, 23.081575899999986 ], [ 108.6341516, 23.0813213 ], [ 108.633967, 23.081070500000031 ], [ 108.6337763, 23.0808235 ], [ 108.6335796, 23.080580600000033 ], [ 108.6333615, 23.080323900000018 ], [ 108.6331367, 23.080072 ], [ 108.6329054, 23.0798253 ], [ 108.632593, 23.079575099999985 ], [ 108.6317849, 23.078893400000016 ], [ 108.6313802, 23.078577 ], [ 108.6298031, 23.077481399999979 ], [ 108.6288518, 23.0769828 ], [ 108.6282002, 23.076634800000051 ], [ 108.6272228, 23.076025499999989 ], [ 108.6208349, 23.0725735 ], [ 108.6202023, 23.07230790000002 ], [ 108.6195719, 23.072033700000031 ], [ 108.6189457, 23.0717517 ], [ 108.6183236, 23.071462 ], [ 108.6177059, 23.071164399999951 ], [ 108.617092600000021, 23.0708593 ], [ 108.6164839, 23.070546499999978 ], [ 108.6158799, 23.070226100000017 ], [ 108.6152806, 23.069898299999974 ], [ 108.6146861, 23.069563 ], [ 108.6140967, 23.069220300000016 ], [ 108.6135124, 23.068870400000023 ], [ 108.6129333, 23.068513100000025 ], [ 108.612359500000011, 23.068148699999977 ], [ 108.6118077, 23.0677882 ], [ 108.6112611, 23.067421 ], [ 108.6107198, 23.067047199999987 ], [ 108.6101839, 23.0666669 ], [ 108.6096534, 23.0662802 ], [ 108.6091285, 23.065887100000015 ], [ 108.6086093, 23.065487600000029 ], [ 108.6080959, 23.06508190000002 ], [ 108.607588300000018, 23.064670099999965 ], [ 108.6070204, 23.06419529999998 ], [ 108.6046708, 23.062201300000016 ], [ 108.6042149, 23.061799599999965 ], [ 108.6037654, 23.061392 ], [ 108.6033222, 23.060978500000029 ], [ 108.602885400000019, 23.0605592 ], [ 108.6024551, 23.060134299999984 ], [ 108.6020315, 23.059703799999973 ], [ 108.6016137, 23.059267 ], [ 108.6012027, 23.058824699999942 ], [ 108.6007986, 23.058377099999962 ], [ 108.6004015, 23.057924199999981 ], [ 108.6000114, 23.057466199999975 ], [ 108.5996284, 23.0570031 ], [ 108.5992527, 23.056535 ], [ 108.5981047, 23.055074 ], [ 108.5914797, 23.047757799999967 ], [ 108.5911431, 23.047335700000016 ], [ 108.590818, 23.046911600000048 ], [ 108.5905016, 23.046481899999989 ], [ 108.5901939, 23.046046800000056 ], [ 108.5898952, 23.04560660000001 ], [ 108.5896055, 23.045161199999988 ], [ 108.5893249, 23.0447109 ], [ 108.5890536, 23.04425590000006 ], [ 108.5887915, 23.04379620000002 ], [ 108.5885389, 23.043332100000068 ], [ 108.5882958, 23.042863799999978 ], [ 108.5880622, 23.0423913 ], [ 108.5878383, 23.041914899999949 ], [ 108.5876241, 23.0414346 ], [ 108.5874198, 23.040950800000026 ], [ 108.5872253, 23.0404636 ], [ 108.5870408, 23.0399731 ], [ 108.5868664, 23.039479400000037 ], [ 108.586702, 23.0389829 ], [ 108.5865477, 23.0384836 ], [ 108.5864088, 23.038000400000033 ], [ 108.5862794, 23.0375149 ], [ 108.5861596, 23.037027400000014 ], [ 108.5860493, 23.036538 ], [ 108.5859486, 23.036046799999962 ], [ 108.5858576, 23.035554 ], [ 108.5857763, 23.03505980000001 ], [ 108.5857049, 23.034566100000013 ], [ 108.5855255, 23.032507599999988 ], [ 108.5854366, 23.0318919 ], [ 108.5853409, 23.031277799999977 ], [ 108.5852384, 23.030664499999943 ], [ 108.585129, 23.030052300000023 ], [ 108.5850179, 23.029466599999971 ], [ 108.5849005, 23.028881900000034 ], [ 108.5847769, 23.028298300000024 ], [ 108.5846469, 23.0277154 ], [ 108.5845388, 23.027335499999964 ], [ 108.5844218, 23.026957799999977 ], [ 108.5842959, 23.026582600000037 ], [ 108.5841612, 23.02620989999998 ], [ 108.5840177, 23.0258401 ], [ 108.5838634, 23.025468099999973 ], [ 108.5837002, 23.0250992 ], [ 108.5835283, 23.024733799999989 ], [ 108.5833477, 23.024372 ], [ 108.5831584, 23.024013799999942 ], [ 108.5829607, 23.023659599999952 ], [ 108.5827545, 23.023309500000021 ], [ 108.58254, 23.022963699999966 ], [ 108.5823173, 23.022622200000011 ], [ 108.5820866, 23.0222854 ], [ 108.58191, 23.022059399999986 ], [ 108.5817271, 23.0218376 ], [ 108.5815382, 23.021620200000022 ], [ 108.5813432, 23.021407400000026 ], [ 108.5811424, 23.0211992 ], [ 108.580915, 23.020975800000041 ], [ 108.5806808, 23.020758499999985 ], [ 108.58044, 23.020547300000043 ], [ 108.5801928, 23.020342400000047 ], [ 108.5799395, 23.020144 ], [ 108.5796802, 23.019952300000018 ], [ 108.5794151, 23.0197674 ], [ 108.577601900000019, 23.018651600000023 ], [ 108.5773633, 23.018504099999983 ], [ 108.577129700000015, 23.018350099999971 ], [ 108.5769012, 23.018189600000017 ], [ 108.576678, 23.0180229 ], [ 108.5764604, 23.017850200000051 ], [ 108.5762485, 23.0176714 ], [ 108.5760426, 23.017486899999962 ], [ 108.5758428, 23.017296800000036 ], [ 108.5756493, 23.017101300000011 ], [ 108.5754533, 23.016890600000018 ], [ 108.5752648, 23.0166744 ], [ 108.5750837, 23.0164529 ], [ 108.5749102, 23.0162261 ], [ 108.5747446, 23.01599449999998 ], [ 108.5745871, 23.015758200000025 ], [ 108.5744377, 23.015517400000043 ], [ 108.574296600000011, 23.015272500000016 ], [ 108.574164, 23.015023500000034 ], [ 108.5740399, 23.014770800000026 ], [ 108.5726666, 23.011828100000031 ], [ 108.5715508, 23.009537 ], [ 108.5714139, 23.009302700000017 ], [ 108.5712702, 23.009071799999976 ], [ 108.5711198, 23.008844499999956 ], [ 108.570963, 23.008621 ], [ 108.5707998, 23.0084014 ], [ 108.5706023, 23.008151399999967 ], [ 108.5703965, 23.007907 ], [ 108.5701827, 23.007668699999982 ], [ 108.5699609, 23.007436500000058 ], [ 108.5697315, 23.0072108 ], [ 108.5694946, 23.006991699999983 ], [ 108.5692504, 23.006779400000028 ], [ 108.5689993, 23.0065741 ], [ 108.5687414, 23.006376099999986 ], [ 108.568477, 23.006185500000026 ], [ 108.5682063, 23.0060025 ], [ 108.5679296, 23.005827299999943 ], [ 108.5676472, 23.00566 ], [ 108.5673593, 23.005500800000021 ], [ 108.5670662, 23.0053499 ], [ 108.566886400000016, 23.005259700000028 ], [ 108.5667039, 23.005174 ], [ 108.566519, 23.005093099999961 ], [ 108.5662903, 23.005000799999966 ], [ 108.5660583, 23.0049157 ], [ 108.5658233, 23.004837800000029 ], [ 108.5655856, 23.004767199999989 ], [ 108.5641909, 23.004382100000015 ], [ 108.5639009, 23.0042835 ], [ 108.5636143, 23.004177300000023 ], [ 108.5633311, 23.00406330000002 ], [ 108.5630517, 23.003941800000021 ], [ 108.5627762, 23.00381280000002 ], [ 108.562505, 23.003676400000039 ], [ 108.5622382, 23.003532800000023 ], [ 108.5619575, 23.0033709 ], [ 108.5616825, 23.003201100000016 ], [ 108.5614133, 23.0030234 ], [ 108.5611504, 23.00283810000003 ], [ 108.5608939, 23.002645199999986 ], [ 108.5606441, 23.002445 ], [ 108.5604012, 23.002237699999974 ], [ 108.5601655, 23.002023599999955 ], [ 108.5599373, 23.0018027 ], [ 108.5597166, 23.001575299999981 ], [ 108.5595038, 23.0013417 ], [ 108.5592991, 23.001102 ], [ 108.5591027, 23.000856600000027 ], [ 108.5589146, 23.000605600000029 ], [ 108.5587353, 23.000349299999968 ], [ 108.5585647, 23.000088 ], [ 108.5584032, 22.9998219 ], [ 108.5582507, 22.9995512 ], [ 108.5581076, 22.999276299999988 ], [ 108.5572493, 22.997291200000017 ], [ 108.5559082, 22.993903600000031 ], [ 108.5547602, 22.991316 ], [ 108.5545299, 22.9906997 ], [ 108.5543081, 22.990080700000028 ], [ 108.554095, 22.989459199999949 ], [ 108.5538815, 22.988806800000017 ], [ 108.5536776, 22.988151800000011 ], [ 108.5534832, 22.98749440000006 ], [ 108.5532984, 22.9868346 ], [ 108.5531233, 22.986172600000017 ], [ 108.5529578, 22.985508400000011 ], [ 108.5523677, 22.983572500000033 ], [ 108.5516381, 22.9817946 ], [ 108.5510158, 22.979927800000034 ], [ 108.5509289, 22.9796776 ], [ 108.5508502, 22.979425100000014 ], [ 108.5507798, 22.979170599999968 ], [ 108.5507178, 22.978914200000037 ], [ 108.5506641, 22.97865620000001 ], [ 108.5506189, 22.978396800000016 ], [ 108.5505819, 22.978134299999979 ], [ 108.5505536, 22.977870800000019 ], [ 108.550534, 22.9776067 ], [ 108.5505231, 22.9773421 ], [ 108.5505208, 22.977077400000045 ], [ 108.5505274, 22.976812700000014 ], [ 108.5505426, 22.976548299999966 ], [ 108.5505665, 22.976284500000027 ], [ 108.5505991, 22.976021500000019 ], [ 108.5506403, 22.9757595 ], [ 108.550897800000016, 22.974021 ], [ 108.550922700000015, 22.973741099999987 ], [ 108.5509405, 22.9734607 ], [ 108.5509512, 22.97318 ], [ 108.5509549, 22.972899200000022 ], [ 108.5509515, 22.9726183 ], [ 108.5509389, 22.9722963 ], [ 108.550917, 22.971974600000042 ], [ 108.5508858, 22.9716536 ], [ 108.5508453, 22.971333499999965 ], [ 108.5507957, 22.971014500000035 ], [ 108.5507368, 22.970696800000027 ], [ 108.5506688, 22.97038059999997 ], [ 108.5505917, 22.970066300000013 ], [ 108.5505055, 22.969753900000029 ], [ 108.5504104, 22.969443699999985 ], [ 108.5503063, 22.969136 ], [ 108.5501934, 22.968831 ], [ 108.5500717, 22.968528800000023 ], [ 108.5499608, 22.968271899999987 ], [ 108.5498415, 22.968018099999988 ], [ 108.5497139, 22.9677678 ], [ 108.5495782, 22.967521200000011 ], [ 108.5494315, 22.967273799999955 ], [ 108.5492766, 22.967030600000033 ], [ 108.5491137, 22.966791900000022 ], [ 108.54894280000002, 22.966558 ], [ 108.5487642, 22.9663291 ], [ 108.548578, 22.966105299999981 ], [ 108.5483844, 22.9658869 ], [ 108.5481836, 22.965674099999966 ], [ 108.5479757, 22.965467100000016 ], [ 108.547761, 22.965266200000013 ], [ 108.5475397, 22.9650714 ], [ 108.5439777, 22.9615644 ], [ 108.540523, 22.95820559999996 ], [ 108.5388541, 22.9565829 ], [ 108.5386071, 22.956351300000012 ], [ 108.538354, 22.956125300000028 ], [ 108.5380948, 22.955905199999972 ], [ 108.5378298, 22.955691099999978 ], [ 108.5375591, 22.95548309999997 ], [ 108.5372829, 22.955281400000015 ], [ 108.5369854, 22.9550753 ], [ 108.5366821, 22.9548764 ], [ 108.5364115, 22.954734900000041 ], [ 108.5361365, 22.9546008 ], [ 108.5358573, 22.954474199999968 ], [ 108.5355742, 22.954355300000014 ], [ 108.5352874, 22.954244099999968 ], [ 108.535024, 22.954149900000019 ], [ 108.534758100000019, 22.954062299999972 ], [ 108.5344897, 22.953981200000019 ], [ 108.534219, 22.953906799999977 ], [ 108.5339463, 22.953839 ], [ 108.5336784, 22.9537974 ], [ 108.5334098, 22.95376 ], [ 108.533049, 22.95371649999997 ], [ 108.5326872, 22.953680599999974 ], [ 108.5323246, 22.953652299999955 ], [ 108.5319614, 22.953631599999959 ], [ 108.5290141, 22.9535896 ], [ 108.5279922, 22.9535204 ], [ 108.5272687, 22.953444200000021 ], [ 108.5267276, 22.953349799999987 ], [ 108.526078, 22.953236399999984 ], [ 108.5251234, 22.9530139 ], [ 108.524865, 22.9529342 ], [ 108.5244977, 22.9528324 ], [ 108.5241327, 22.952723700000011 ], [ 108.5237703, 22.952608 ], [ 108.5230221, 22.952318500000025 ], [ 108.5226509, 22.952168399999987 ], [ 108.5223089, 22.9520112 ], [ 108.5217367, 22.951708099999969 ], [ 108.521062, 22.951335200000017 ], [ 108.5184119, 22.949716 ], [ 108.51829290000002, 22.949640300000038 ], [ 108.5150313, 22.947585299999961 ], [ 108.5112333, 22.945233899999966 ], [ 108.5094094, 22.944018600000017 ], [ 108.5091657, 22.943814599999985 ], [ 108.5089267, 22.94360579999994 ], [ 108.5086928, 22.943392300000042 ], [ 108.5084638, 22.943174200000026 ], [ 108.50824, 22.9429516 ], [ 108.5079723, 22.942672300000034 ], [ 108.5077128, 22.9423866 ], [ 108.5074615, 22.94209470000002 ], [ 108.5072187, 22.941796799999977 ], [ 108.5069845, 22.9414931 ], [ 108.5067591, 22.9411838 ], [ 108.5065426, 22.94086919999998 ], [ 108.506335300000018, 22.940549399999981 ], [ 108.5061371, 22.940224700000023 ], [ 108.5057349, 22.939483599999985 ], [ 108.5051129, 22.938235600000013 ], [ 108.5048858, 22.937664699999985 ], [ 108.5043476, 22.936357 ], [ 108.5035361, 22.934455799999967 ], [ 108.5034622, 22.934283499999982 ], [ 108.503357, 22.934038099999974 ], [ 108.5032038, 22.933643100000044 ], [ 108.5025164, 22.9318704 ], [ 108.5018921, 22.930489400000024 ], [ 108.5016491, 22.929952 ], [ 108.501022, 22.928326399999989 ], [ 108.500591, 22.927086200000016 ], [ 108.5004615, 22.926522599999966 ], [ 108.5003748, 22.9260083 ], [ 108.5003439, 22.9255236 ], [ 108.5004738, 22.924900499999946 ], [ 108.5006471, 22.924413499999975 ], [ 108.5009383, 22.923620200000027 ], [ 108.5009645, 22.923573600000015 ], [ 108.50098, 22.9234385 ], [ 108.5009635, 22.923366799999965 ], [ 108.5009304, 22.923253800000023 ], [ 108.5008573, 22.923153899999967 ], [ 108.5007716, 22.923062 ], [ 108.5005161, 22.92295980000004 ], [ 108.497545100000011, 22.921770599999949 ], [ 108.4970603, 22.921602300000032 ], [ 108.4967234, 22.921505799999938 ], [ 108.496347600000021, 22.9214244 ], [ 108.4942967, 22.92092640000001 ], [ 108.4922107, 22.920419899999988 ], [ 108.4900992, 22.919878800000014 ], [ 108.4896288, 22.919729299999947 ], [ 108.4891605, 22.919530700000031 ], [ 108.4889055, 22.919397700000033 ], [ 108.4879346, 22.918891399999978 ], [ 108.4877638, 22.91880230000001 ], [ 108.486447100000021, 22.91813260000005 ], [ 108.4855565, 22.917649600000011 ], [ 108.4846594, 22.917181 ], [ 108.48398730000001, 22.91684649999997 ], [ 108.483488600000015, 22.916661800000021 ], [ 108.4832029, 22.916472 ], [ 108.4830962, 22.9164335 ], [ 108.4822998, 22.916179100000015 ], [ 108.4818052, 22.91606920000001 ], [ 108.4812291, 22.915941199999953 ], [ 108.4806707, 22.915817100000051 ], [ 108.4799416, 22.9156697 ], [ 108.4795532, 22.915571899999968 ], [ 108.4776851, 22.915148299999956 ], [ 108.477117600000014, 22.915032200000066 ], [ 108.4731013, 22.91421050000001 ], [ 108.4685583, 22.913238700000019 ], [ 108.4682203, 22.913168599999981 ], [ 108.46468, 22.912435 ], [ 108.463596, 22.9121184 ], [ 108.462657, 22.9116912 ], [ 108.461583, 22.911000899999976 ], [ 108.4612365, 22.910762399999971 ], [ 108.4603633, 22.910025900000011 ], [ 108.4593192, 22.909130599999958 ], [ 108.4576734, 22.9078342 ], [ 108.4559985, 22.906557799999977 ], [ 108.4549956, 22.905727 ], [ 108.4549577, 22.9056983 ], [ 108.4541706, 22.905102599999942 ], [ 108.4528495, 22.904179 ], [ 108.452607, 22.9040095 ], [ 108.450828, 22.902942899999974 ], [ 108.448917, 22.901946100000035 ], [ 108.4482889, 22.9015714 ], [ 108.447937, 22.901362 ], [ 108.4425877, 22.898594500000041 ], [ 108.4423164, 22.898402599999979 ], [ 108.441545, 22.897857400000049 ], [ 108.440672, 22.897250599999982 ], [ 108.439354, 22.896239699999963 ], [ 108.4380182, 22.895158899999977 ], [ 108.435027, 22.892742100000024 ], [ 108.4348247, 22.892603899999951 ], [ 108.4346819, 22.892487099999961 ], [ 108.434569, 22.892393200000043 ], [ 108.431493, 22.889879200000017 ], [ 108.430044, 22.888769900000014 ], [ 108.427153, 22.88643350000001 ], [ 108.42618, 22.885707 ], [ 108.4255272, 22.885273 ], [ 108.425356, 22.8851592 ], [ 108.4245624, 22.8846973 ], [ 108.4244641, 22.884631200000012 ], [ 108.4242741, 22.8845321 ], [ 108.424215, 22.884497600000017 ], [ 108.423142, 22.883870500000022 ], [ 108.41828, 22.881532 ], [ 108.4170989, 22.880936599999984 ], [ 108.4169842, 22.8808787 ], [ 108.414698, 22.879726200000025 ], [ 108.4106232, 22.8777459 ], [ 108.4105205, 22.877696 ], [ 108.4078089, 22.8763844 ], [ 108.407305, 22.876162700000013 ], [ 108.405479, 22.8754974 ], [ 108.40429, 22.87514070000001 ], [ 108.402555, 22.8747344 ], [ 108.401458, 22.87454190000004 ], [ 108.4003926, 22.874434200000028 ], [ 108.3987042, 22.874316400000026 ], [ 108.3973363, 22.874197 ], [ 108.3956613, 22.874039600000021 ], [ 108.3951749, 22.8739656 ], [ 108.3933298, 22.873685099999964 ], [ 108.3929936, 22.873620500000044 ], [ 108.3928006, 22.8735834 ], [ 108.392869500000018, 22.8734461 ], [ 108.3929221, 22.873341300000082 ], [ 108.3954924, 22.868708900000016 ], [ 108.3951849, 22.868509200000023 ], [ 108.3948764, 22.868254599999986 ], [ 108.3946082, 22.867972899999955 ], [ 108.3944607, 22.867782600000048 ], [ 108.3942381, 22.8676244 ], [ 108.3939993, 22.867491 ], [ 108.3935916, 22.867241300000021 ], [ 108.3930847, 22.867043600000034 ], [ 108.3925848, 22.866896 ], [ 108.3917409, 22.866697600000016 ], [ 108.3911669, 22.866413400000017 ], [ 108.3900592, 22.865751100000026 ], [ 108.3895737, 22.865422400000014 ], [ 108.3885705, 22.864787199999988 ], [ 108.3875754, 22.864100200000014 ], [ 108.3870202, 22.8637022 ], [ 108.3866313, 22.8633958 ], [ 108.3863899, 22.8631091 ], [ 108.3862048, 22.8628965 ], [ 108.3859205, 22.8624492 ], [ 108.385655, 22.861987 ], [ 108.3853975, 22.861663299999982 ], [ 108.385148, 22.861359300000039 ], [ 108.383925, 22.860573300000016 ], [ 108.3836838, 22.86040859999996 ], [ 108.3833578, 22.860223300000033 ], [ 108.3830221, 22.859973199999988 ], [ 108.381914900000012, 22.858716 ], [ 108.3815352, 22.858356 ], [ 108.3814055, 22.8582331 ], [ 108.380922, 22.857774700000022 ], [ 108.3794219, 22.856010599999962 ], [ 108.3790719, 22.855543200000021 ], [ 108.3787719, 22.8549508 ], [ 108.3784361, 22.854022700000037 ], [ 108.3779575, 22.852897100000021 ], [ 108.3777361, 22.8526799 ], [ 108.3772789, 22.852456 ], [ 108.3769146, 22.852357300000026 ], [ 108.3760186, 22.85221090000001 ], [ 108.3759074, 22.852192700000042 ], [ 108.3754859, 22.852080800000014 ], [ 108.374793, 22.8518044 ], [ 108.373314400000012, 22.851126399999956 ], [ 108.3731001, 22.850922300000025 ], [ 108.3729001, 22.850652400000026 ], [ 108.3726215, 22.850224499999985 ], [ 108.3724377, 22.850086300000051 ], [ 108.3722441, 22.84993 ], [ 108.3718841, 22.84979330000002 ], [ 108.3715922, 22.8497024 ], [ 108.3710272, 22.849563800000055 ], [ 108.3707629, 22.849463600000028 ], [ 108.3706088, 22.849382300000016 ], [ 108.3704891, 22.849239600000015 ], [ 108.3703864, 22.8490499 ], [ 108.3702453, 22.848916699999986 ], [ 108.3702246, 22.848800899999969 ], [ 108.3701361, 22.848536 ], [ 108.3699916, 22.848359300000062 ], [ 108.3698065, 22.848194699999983 ], [ 108.3695873, 22.847986499999951 ], [ 108.3693338, 22.847741800000012 ], [ 108.3687758, 22.846937199999989 ], [ 108.3679191, 22.845651099999973 ], [ 108.3670589, 22.844441200000031 ], [ 108.3667591, 22.8440195 ], [ 108.3662963, 22.843990199999958 ], [ 108.3653306, 22.843822700000057 ], [ 108.3649263, 22.843644 ], [ 108.364696, 22.843581 ], [ 108.3643587, 22.843505799999985 ], [ 108.3636146, 22.843340099999988 ], [ 108.3635348, 22.843317800000019 ], [ 108.362865, 22.843166 ], [ 108.36198090000002, 22.842884200000022 ], [ 108.3617434, 22.842760900000016 ], [ 108.3612562, 22.842508099999961 ], [ 108.3603334, 22.8418997 ], [ 108.3596332, 22.841496899999989 ], [ 108.3589425, 22.8411606 ], [ 108.3581302, 22.840800599999966 ], [ 108.3581358, 22.8407209 ], [ 108.3581407, 22.84065190000004 ], [ 108.3581463, 22.840571599999986 ], [ 108.358127100000019, 22.840355 ], [ 108.3579929, 22.84026349999996 ], [ 108.3578562, 22.840228900000017 ], [ 108.3577355, 22.8401671 ], [ 108.3576925, 22.8400633 ], [ 108.3578213, 22.8397518 ], [ 108.3579044, 22.839692499999966 ], [ 108.3581887, 22.839786400000044 ], [ 108.3585536, 22.839814599999986 ], [ 108.3587016, 22.8394902 ], [ 108.3588308, 22.83916810000003 ], [ 108.3592639, 22.838080800000018 ], [ 108.3594778, 22.837655199999972 ], [ 108.3598996, 22.837033 ], [ 108.3599607, 22.8367893 ], [ 108.36023560000001, 22.836129399999955 ], [ 108.3603422, 22.834647 ], [ 108.3603165, 22.8345094 ], [ 108.3603794, 22.8341569 ], [ 108.360632, 22.8327418 ], [ 108.3607989, 22.8316454 ], [ 108.3609972, 22.829769300000013 ], [ 108.3609415, 22.829690399999976 ], [ 108.361056, 22.8296379 ], [ 108.3621092, 22.829155599999968 ], [ 108.362409, 22.8290183 ], [ 108.3653156, 22.827687300000026 ], [ 108.36382420000001, 22.825430500000021 ], [ 108.362968, 22.824139600000031 ], [ 108.362418100000014, 22.8232927 ], [ 108.3615472, 22.8219515 ], [ 108.3602833, 22.820091699999967 ], [ 108.3590253, 22.8181885 ], [ 108.358897, 22.817887500000012 ], [ 108.358817500000015, 22.817520399999982 ], [ 108.358802, 22.817095500000011 ], [ 108.3587342, 22.8158816 ], [ 108.358734700000014, 22.815752900000067 ], [ 108.358735, 22.815663099999956 ], [ 108.3587354, 22.815555299999968 ], [ 108.358738, 22.815133399999979 ], [ 108.3587428, 22.814412500000049 ], [ 108.3587317, 22.8141254 ], [ 108.3585995, 22.8137322 ], [ 108.3584091, 22.8134084 ], [ 108.3581702, 22.813172299999977 ], [ 108.3575765, 22.812601099999945 ], [ 108.3575323, 22.8125585 ], [ 108.3569946, 22.8120789 ], [ 108.3564415, 22.8115217 ], [ 108.3558555, 22.810918599999976 ], [ 108.3547077, 22.80980290000004 ], [ 108.3546389, 22.80973950000001 ], [ 108.3536748, 22.808854400000026 ], [ 108.3535024, 22.808668899999983 ], [ 108.3529518, 22.8091973 ], [ 108.3529374, 22.809245599999965 ], [ 108.352948400000017, 22.809303 ], [ 108.3531988, 22.809467299999987 ], [ 108.3534884, 22.8097155 ], [ 108.3535582, 22.809700700000011 ], [ 108.3536386, 22.8097155 ], [ 108.3538157, 22.80978469999997 ], [ 108.3540195, 22.8099034 ], [ 108.3541429, 22.810002300000011 ], [ 108.3542287, 22.8101606 ], [ 108.3543253, 22.810269299999984 ], [ 108.354443300000014, 22.810323699999984 ], [ 108.3547008, 22.8104968 ], [ 108.3549475, 22.8108182 ], [ 108.3550656, 22.8110803 ], [ 108.3551031, 22.81131269999997 ], [ 108.3552158, 22.811510500000011 ], [ 108.3553391, 22.81175769999998 ], [ 108.3554357, 22.812029699999972 ], [ 108.355505400000013, 22.812356100000034 ], [ 108.3554894, 22.812633 ], [ 108.355457200000018, 22.812830800000011 ], [ 108.355264, 22.813211499999966 ], [ 108.3549422, 22.813458799999982 ] ] } }
]
}
