{
"type": "FeatureCollection",
"name": "rescue_case_settlements",
"crs": { "type": "name", "properties": { "name": "urn:ogc:def:crs:OGC:1.3:CRS84" } },
"features": [
{ "type": "Feature", "properties": { "source_layer": "gis_osm_places_free", "source_fid": "<NA>", "osm_id": "3155701164", "fclass": "town", "record_id": "settlements:gis_osm_places_free:3155701164:town", "source_crs": "OGC:CRS84", "district_code": "450181", "data_source": "OpenStreetMap", "data_type": "real", "dedup_status": "kept", "dedup_reason": "<NA>", "settlement_name": "那阳镇", "settlement_type": "town", "population": 0, "longitude": 109.3249703, "latitude": 22.7066752, "source_record_id": null, "record_id_origin": "derived_from_source_layer_osm_id_fclass", "boundary_version": "smartbidata_task06_20260810", "boundary_status": "team_shared", "code_validation_status": "team_shared_source", "province": "广西壮族自治区", "city": "南宁市", "district": "横州市", "district_name": "横州市", "district_assignment_status": "assigned_within", "inside_flood": false, "distance_to_flood_m": 165.52909189470327, "exposure_class": "near_flood", "assessment_status": "potential_remote_sensing_assessment", "evidence": "within_500m_of_task20_new_flood_extent", "local_population_2020_buffer_estimate": 8595.9273986816406, "warning": "overlapping_buffers_not_additive", "nearest_mapped_rescue_resource_id": "rescue_hz_001", "nearest_mapped_rescue_resource_name": "横州市消防救援大队（横州站）", "mapped_rescue_straight_line_distance_m": 3436.8018115820778, "nearest_rescue_point_id": "rescue_hz_001", "nearest_rescue_point_name": "横州市消防救援大队（横州站）", "rescue_straight_line_distance_m": 3436.8018115820778, "event_id": "nanning_flood_20260706_0707", "analysis_date": "2026-07-07", "calculation_version": "dispatch_v3", "source_commit": "074f2c6841becf074f14d90e06a2e9672972f1ec" }, "geometry": { "type": "Point", "coordinates": [ 109.3249703, 22.7066752 ] } },
{ "type": "Feature", "properties": { "source_layer": "gis_osm_places_free", "source_fid": "<NA>", "osm_id": "7997751774", "fclass": "village", "record_id": "settlements:gis_osm_places_free:7997751774:village", "source_crs": "OGC:CRS84", "district_code": "450126", "data_source": "OpenStreetMap", "data_type": "real", "dedup_status": "kept", "dedup_reason": "<NA>", "settlement_name": "新宾", "settlement_type": "village", "population": 0, "longitude": 108.8245632, "latitude": 23.2463408, "source_record_id": null, "record_id_origin": "derived_from_source_layer_osm_id_fclass", "boundary_version": "smartbidata_task06_20260810", "boundary_status": "team_shared", "code_validation_status": "team_shared_source", "province": "广西壮族自治区", "city": "南宁市", "district": "宾阳县", "district_name": "宾阳县", "district_assignment_status": "assigned_within", "inside_flood": false, "distance_to_flood_m": 337.23937227046275, "exposure_class": "near_flood", "assessment_status": "potential_remote_sensing_assessment", "evidence": "within_500m_of_task20_new_flood_extent", "local_population_2020_buffer_estimate": 13320.722450256348, "warning": "overlapping_buffers_not_additive", "nearest_mapped_rescue_resource_id": "rescue_by_001", "nearest_mapped_rescue_resource_name": "宾阳县应急救援队", "mapped_rescue_straight_line_distance_m": 1135.7067496744264, "nearest_rescue_point_id": "rescue_by_001", "nearest_rescue_point_name": "宾阳县应急救援队", "rescue_straight_line_distance_m": 1135.7067496744264, "event_id": "nanning_flood_20260706_0707", "analysis_date": "2026-07-07", "calculation_version": "dispatch_v3", "source_commit": "074f2c6841becf074f14d90e06a2e9672972f1ec" }, "geometry": { "type": "Point", "coordinates": [ 108.8245632, 23.2463408 ] } }
]
}
