{
"type": "FeatureCollection",
"name": "rescue_routes",
"crs": { "type": "name", "properties": { "name": "urn:ogc:def:crs:OGC:1.3:CRS84" } },
"features": [
{ "type": "Feature", "properties": { "case_id": "rescue_case_01", "district_code": "450126", "rescue_point_id": "rescue_by_001", "rescue_point_name": "宾阳县应急救援队", "settlement_record_id": "settlements:gis_osm_places_free:7997751774:village", "settlement_name": "新宾", "exposure_class": "near_flood", "local_population_2020_buffer_estimate": 13320.722450256348, "straight_line_distance_m": 1135.7067496744264, "network_distance_m": 1133.4192034412847, "origin_connector_distance_m": 50.803538954368825, "destination_connector_distance_m": 95.224932540371952, "total_route_distance_m": 1279.4476749360256, "road_segment_count": 10, "road_record_ids": [ "roads:gis_osm_roads_free:629194326:tertiary", "roads:gis_osm_roads_free:395693017:tertiary" ], "route_status": "route_found", "routing_rule": "exclude_all_suspected_affected_roads", "event_id": "nanning_flood_20260706_0707", "analysis_date": "2026-07-07", "data_type": "real", "calculation_version": "dispatch_v3", "data_source": "SmartbiData fixed shared inputs", "source_commit": "074f2c6841becf074f14d90e06a2e9672972f1ec" }, "geometry": { "type": "LineString", "coordinates": [ [ 108.8164581, 23.23870570000005 ], [ 108.8179474, 23.239485300000052 ], [ 108.818243, 23.23964 ], [ 108.81916, 23.240262 ], [ 108.8201269, 23.2409774 ], [ 108.820517, 23.241266 ], [ 108.821588, 23.242116 ], [ 108.8229852, 23.243194600000031 ], [ 108.8231603, 23.243659900000011 ], [ 108.823495, 23.244669 ], [ 108.823878, 23.245759 ] ] } },
{ "type": "Feature", "properties": { "case_id": "rescue_case_02", "district_code": "450181", "rescue_point_id": "rescue_hz_001", "rescue_point_name": "横州市消防救援大队（横州站）", "settlement_record_id": "settlements:gis_osm_places_free:3155701164:town", "settlement_name": "那阳镇", "exposure_class": "near_flood", "local_population_2020_buffer_estimate": 8595.9273986816406, "straight_line_distance_m": 3436.8018115820778, "network_distance_m": 8802.8252076155077, "origin_connector_distance_m": 147.64855273139847, "destination_connector_distance_m": 43.192785940519123, "total_route_distance_m": 8993.6665462874244, "road_segment_count": 132, "road_record_ids": [ "roads:gis_osm_roads_free:858273870:unclassified", "roads:gis_osm_roads_free:858273868:unclassified", "roads:gis_osm_roads_free:858273867:unclassified", "roads:gis_osm_roads_free:858273872:trunk", "roads:gis_osm_roads_free:694326749:trunk", "roads:gis_osm_roads_free:531536424:trunk", "roads:gis_osm_roads_free:531536425:trunk", "roads:gis_osm_roads_free:858265187:residential", "roads:gis_osm_roads_free:858265186:residential", "roads:gis_osm_roads_free:858265182:residential", "roads:gis_osm_roads_free:858265174:residential", "roads:gis_osm_roads_free:858265175:residential", "roads:gis_osm_roads_free:858265179:residential" ], "route_status": "route_found", "routing_rule": "exclude_all_suspected_affected_roads", "event_id": "nanning_flood_20260706_0707", "analysis_date": "2026-07-07", "data_type": "real", "calculation_version": "dispatch_v3", "data_source": "SmartbiData fixed shared inputs", "source_commit": "074f2c6841becf074f14d90e06a2e9672972f1ec" }, "geometry": { "type": "LineString", "coordinates": [ [ 109.2919064, 22.7048398 ], [ 109.292534, 22.705112 ], [ 109.292888, 22.705225799999983 ], [ 109.2931616, 22.705453399999953 ], [ 109.2934996, 22.7058988 ], [ 109.2939287, 22.70650750000005 ], [ 109.2944813, 22.706982599999982 ], [ 109.2948192, 22.707145900000022 ], [ 109.2956722, 22.707541799999962 ], [ 109.2959458, 22.70762089999997 ], [ 109.296616300000011, 22.7077397 ], [ 109.2967933, 22.70781889999995 ], [ 109.2970455, 22.708006900000012 ], [ 109.2973137, 22.708244500000038 ], [ 109.2984778, 22.709555800000032 ], [ 109.2990839, 22.710164499999987 ], [ 109.2994702, 22.710446600000019 ], [ 109.3003285, 22.710990900000038 ], [ 109.3010312, 22.711391699999986 ], [ 109.3013209, 22.711614399999959 ], [ 109.3014765, 22.7118371 ], [ 109.3021524, 22.712955399999981 ], [ 109.3028337, 22.714237100000041 ], [ 109.3034613, 22.715028800000013 ], [ 109.3040621, 22.715667100000065 ], [ 109.3044323, 22.716018500000043 ], [ 109.3053925, 22.716716200000029 ], [ 109.3064064, 22.71731 ], [ 109.3068141, 22.717443599999985 ], [ 109.3093675, 22.71802750000003 ], [ 109.309721600000017, 22.71815609999998 ], [ 109.3101883, 22.718428300000024 ], [ 109.3105477, 22.718680599999981 ], [ 109.3107301, 22.7187598 ], [ 109.3114704, 22.718937900000018 ], [ 109.3118727, 22.71910620000002 ], [ 109.3123019, 22.719289199999988 ], [ 109.3124467, 22.719289200000023 ], [ 109.3127096, 22.719185300000028 ], [ 109.3131548, 22.718898300000038 ], [ 109.314115, 22.718507399999933 ], [ 109.3146622, 22.7183046 ], [ 109.3152898, 22.71805220000001 ], [ 109.316266200000015, 22.717577199999987 ], [ 109.3169957, 22.717201099999961 ], [ 109.3172747, 22.717117 ], [ 109.3176073, 22.7171467 ], [ 109.3192542, 22.717537600000025 ], [ 109.3194419, 22.717676099999984 ], [ 109.319635, 22.7179631 ], [ 109.3203753, 22.719175400000019 ], [ 109.3210137, 22.720150199999978 ], [ 109.321278, 22.72038160000001 ], [ 109.3213302, 22.7204273 ], [ 109.322843, 22.7218177 ], [ 109.323771, 22.722505499999983 ], [ 109.324103600000015, 22.722683699999983 ], [ 109.3243911, 22.722906899999977 ], [ 109.332851, 22.724403 ], [ 109.333932200000021, 22.720405200000016 ], [ 109.334902, 22.716446300000015 ], [ 109.3361437, 22.71108780000003 ], [ 109.3365779, 22.709272 ], [ 109.335959, 22.709249 ], [ 109.3357283, 22.709244100000056 ], [ 109.335411800000017, 22.7091451 ], [ 109.3350148, 22.7089768 ], [ 109.334827100000012, 22.708962 ], [ 109.334591, 22.7089917 ], [ 109.3344086, 22.709046099999977 ], [ 109.3342155, 22.709135199999988 ], [ 109.3340707, 22.70916490000003 ], [ 109.3335932, 22.709194599999947 ], [ 109.3335342, 22.709239100000016 ], [ 109.3335218, 22.709281200000024 ], [ 109.333335800000015, 22.709249 ], [ 109.332743, 22.708986700000029 ], [ 109.3326572, 22.7089224 ], [ 109.3324882, 22.7086898 ], [ 109.3323648, 22.708578500000023 ], [ 109.3322119, 22.7085043 ], [ 109.3320537, 22.708447300000032 ], [ 109.3319061, 22.708444900000014 ], [ 109.3317157, 22.7084473 ], [ 109.3315923, 22.708509200000016 ], [ 109.3314287, 22.708605699999975 ], [ 109.3313026, 22.7086255 ], [ 109.331208800000013, 22.708628 ], [ 109.331010300000017, 22.708583400000023 ], [ 109.3309032, 22.7085335 ], [ 109.3307823, 22.708477 ], [ 109.330278, 22.7079574 ], [ 109.3300661, 22.707749600000028 ], [ 109.3299374, 22.707591199999978 ], [ 109.3298301, 22.707423 ], [ 109.3297711, 22.7073017 ], [ 109.3295673, 22.706908299999963 ], [ 109.3295217, 22.706608900000017 ], [ 109.3295351, 22.706519900000025 ], [ 109.3299481, 22.705718199999989 ], [ 109.3299732, 22.70567160000002 ], [ 109.3300529, 22.705524 ], [ 109.3298194, 22.705416299999939 ], [ 109.3297014, 22.7053495 ], [ 109.3296075, 22.705240599999986 ], [ 109.3293795, 22.704916500000021 ], [ 109.3292856, 22.704869500000012 ], [ 109.3291461, 22.704815 ], [ 109.3290845, 22.704775499999982 ], [ 109.3290067, 22.704674 ], [ 109.3288967, 22.704557700000016 ], [ 109.3286312, 22.704364699999982 ], [ 109.328379, 22.7042484 ], [ 109.3281189, 22.704114800000035 ], [ 109.3280035, 22.704097500000053 ], [ 109.3278721, 22.704137100000015 ], [ 109.3272045, 22.704463400000026 ], [ 109.3270621, 22.704533 ], [ 109.326791200000017, 22.704679 ], [ 109.326649, 22.704854600000051 ], [ 109.3265015, 22.705206 ], [ 109.3262467, 22.705092199999964 ], [ 109.3260241, 22.704928899999945 ], [ 109.325721, 22.7046295 ], [ 109.3255171, 22.704874399999962 ], [ 109.3252704, 22.705072400000027 ], [ 109.3251604, 22.705181199999984 ], [ 109.3250021, 22.705253 ], [ 109.3249243, 22.705309900000014 ], [ 109.3245703, 22.705656299999958 ], [ 109.3250048, 22.7060745 ], [ 109.3250772, 22.706222899999965 ], [ 109.3251792, 22.706336799999988 ] ] } }
]
}
