{
"type": "FeatureCollection",
"name": "rescue_points",
"crs": { "type": "name", "properties": { "name": "urn:ogc:def:crs:OGC:1.3:CRS84" } },
"features": [
{ "type": "Feature", "properties": { "rescue_point_id": "rescue_by_001", "rescue_point_name": "宾阳县应急救援队", "map_display_name": "宾阳县应急救援队", "rescue_point_type": "综合应急救援队", "district_code": "450126", "district_name": "宾阳县", "address": "宾阳县宾州镇宾中路466号", "address_verification_status": "public_notice_and_user_confirmed", "longitude_gcj02": 108.820836, "latitude_gcj02": 23.236185, "coordinate_source": "Gaode_manual_lookup", "coordinate_source_crs": "GCJ-02", "coordinate_verification": "user_confirmed", "operational_status": "operational", "source_url": "https://www.sydw.net/zpxx/379225.html", "evidence_note": "公开招聘公告明确该队承担防汛救灾和应急突发事件处置并给出工作地点", "data_type": "real", "longitude_wgs84": 108.81688942268943, "latitude_wgs84": 23.238932997045517, "eligible_for_dispatch": true, "exclusion_reason": null, "event_id": "nanning_flood_20260706_0707", "analysis_date": "2026-07-07", "calculation_version": "dispatch_v3", "data_source": "SmartbiData fixed shared inputs", "source_commit": "074f2c6841becf074f14d90e06a2e9672972f1ec" }, "geometry": { "type": "Point", "coordinates": [ 108.816889422689428, 23.238932997045517 ] } },
{ "type": "Feature", "properties": { "rescue_point_id": "rescue_hz_001", "rescue_point_name": "横州市消防救援大队（横州站）", "map_display_name": "横州市消防救援大队", "rescue_point_type": "消防救援站", "district_code": "450181", "district_name": "横州市", "address": "横州市横州镇长安路（横州市人民法院对面、车辆管理所附近）", "address_verification_status": "public_activity_record_and_user_confirmed", "longitude_gcj02": 109.295811, "latitude_gcj02": 22.703279, "coordinate_source": "Gaode_manual_lookup", "coordinate_source_crs": "GCJ-02", "coordinate_verification": "user_confirmed", "operational_status": "operational", "source_url": "https://static.nfapp.southcn.com/content/202106/08/c5379305.html", "evidence_note": "公开救援活动记录确认横州站承担实际消防救援任务", "data_type": "real", "longitude_wgs84": 109.29151401413534, "latitude_wgs84": 22.706122035459515, "eligible_for_dispatch": true, "exclusion_reason": null, "event_id": "nanning_flood_20260706_0707", "analysis_date": "2026-07-07", "calculation_version": "dispatch_v3", "data_source": "SmartbiData fixed shared inputs", "source_commit": "074f2c6841becf074f14d90e06a2e9672972f1ec" }, "geometry": { "type": "Point", "coordinates": [ 109.291514014135345, 22.706122035459515 ] } },
{ "type": "Feature", "properties": { "rescue_point_id": "rescue_by_002", "rescue_point_name": "宾阳县黎塘消防救援站", "map_display_name": "宾阳县黎塘消防救援站", "rescue_point_type": "消防救援站", "district_code": "450126", "district_name": "宾阳县", "address": "宾阳县黎塘镇", "address_verification_status": "map_user_confirmed", "longitude_gcj02": 109.075765, "latitude_gcj02": 23.187212, "coordinate_source": "Gaode_manual_lookup", "coordinate_source_crs": "GCJ-02", "coordinate_verification": "user_confirmed", "operational_status": "operational", "source_url": "https://www.safehoo.com/Case/Case/Blow/202412/5757735.shtml", "evidence_note": "事故救援记录记载黎塘站参与现场救援且地图位置由用户确认", "data_type": "real", "longitude_wgs84": 109.07141398848535, "latitude_wgs84": 23.189732157098767, "eligible_for_dispatch": true, "exclusion_reason": null, "event_id": "nanning_flood_20260706_0707", "analysis_date": "2026-07-07", "calculation_version": "dispatch_v3", "data_source": "SmartbiData fixed shared inputs", "source_commit": "074f2c6841becf074f14d90e06a2e9672972f1ec" }, "geometry": { "type": "Point", "coordinates": [ 109.071413988485347, 23.189732157098767 ] } },
{ "type": "Feature", "properties": { "rescue_point_id": "rescue_hz_002", "rescue_point_name": "六景化工园消防救援站", "map_display_name": "六景化工园消防救援站（建设中）", "rescue_point_type": "消防救援站", "district_code": "450181", "district_name": "横州市", "address": "横州市六景镇", "address_verification_status": "map_user_confirmed", "longitude_gcj02": 108.970743, "latitude_gcj02": 22.780041, "coordinate_source": "Gaode_manual_lookup", "coordinate_source_crs": "GCJ-02", "coordinate_verification": "user_confirmed", "operational_status": "under_construction", "source_url": "https://www.safehoo.com/Case/Case/Blow/202412/5757735.shtml", "evidence_note": "地图明确标注建设中因此不作为救援调度出发点", "data_type": "real", "longitude_wgs84": 108.96676250645444, "latitude_wgs84": 22.782990056625366, "eligible_for_dispatch": false, "exclusion_reason": "site_under_construction", "event_id": "nanning_flood_20260706_0707", "analysis_date": "2026-07-07", "calculation_version": "dispatch_v3", "data_source": "SmartbiData fixed shared inputs", "source_commit": "074f2c6841becf074f14d90e06a2e9672972f1ec" }, "geometry": { "type": "Point", "coordinates": [ 108.966762506454444, 22.782990056625366 ] } }
]
}
