{
"type": "FeatureCollection",
"name": "suspected_bridges",
"crs": { "type": "name", "properties": { "name": "urn:ogc:def:crs:OGC:1.3:CRS84" } },
"features": [
{ "type": "Feature", "properties": { "source_layer": "gis_osm_roads_free", "source_fid": "<NA>", "osm_id": "387707388", "fclass": "tertiary", "record_id": "roads:gis_osm_roads_free:387707388:tertiary", "source_crs": "OGC:CRS84", "district_code": "450181", "data_source": "OpenStreetMap", "data_type": "real", "dedup_status": "kept", "dedup_reason": "<NA>", "road_name": "", "road_class": "tertiary", "road_ref": "", "oneway": "B", "maxspeed_kmh": 0, "bridge_flag": "T", "tunnel_flag": "F", "layer_level": 1, "longitude": 108.9718393, "latitude": 22.9279745, "source_record_id": null, "record_id_origin": "derived_from_source_layer_osm_id_fclass", "boundary_version": "smartbidata_task06_20260810", "boundary_status": "team_shared", "code_validation_status": "team_shared_source", "province": "广西壮族自治区", "city": "南宁市", "district": "横州市", "road_length_m": 49.299515449577022, "flood_intersection_length_m": 49.299515449577022, "flood_intersection_ratio": 1.0, "intersecting_flood_polygon_count": 1, "suspected_affected": true, "suspected_impassable_review": true, "bridge_flag_normalized": "True", "bridge_review": true, "assessment_status": "疑似受影响，需现场核查", "evidence": "Task_20洪涝范围相交筛查；道路通行状态需现场核查", "event_id": "nanning_flood_20260706_0707", "analysis_date": "2026-07-07", "calculation_version": "dispatch_v3", "source_commit": "074f2c6841becf074f14d90e06a2e9672972f1ec" }, "geometry": { "type": "LineString", "coordinates": [ [ 108.9718393, 22.9279745 ], [ 108.9723147, 22.928041 ] ] } },
{ "type": "Feature", "properties": { "source_layer": "gis_osm_roads_free", "source_fid": "<NA>", "osm_id": "387707387", "fclass": "tertiary", "record_id": "roads:gis_osm_roads_free:387707387:tertiary", "source_crs": "OGC:CRS84", "district_code": "450181", "data_source": "OpenStreetMap", "data_type": "real", "dedup_status": "kept", "dedup_reason": "<NA>", "road_name": "", "road_class": "tertiary", "road_ref": "", "oneway": "B", "maxspeed_kmh": 0, "bridge_flag": "T", "tunnel_flag": "F", "layer_level": 1, "longitude": 108.9915485, "latitude": 22.9246988, "source_record_id": null, "record_id_origin": "derived_from_source_layer_osm_id_fclass", "boundary_version": "smartbidata_task06_20260810", "boundary_status": "team_shared", "code_validation_status": "team_shared_source", "province": "广西壮族自治区", "city": "南宁市", "district": "横州市", "road_length_m": 26.753599003974976, "flood_intersection_length_m": 26.753599003974976, "flood_intersection_ratio": 1.0, "intersecting_flood_polygon_count": 1, "suspected_affected": true, "suspected_impassable_review": true, "bridge_flag_normalized": "True", "bridge_review": true, "assessment_status": "疑似受影响，需现场核查", "evidence": "Task_20洪涝范围相交筛查；道路通行状态需现场核查", "event_id": "nanning_flood_20260706_0707", "analysis_date": "2026-07-07", "calculation_version": "dispatch_v3", "source_commit": "074f2c6841becf074f14d90e06a2e9672972f1ec" }, "geometry": { "type": "LineString", "coordinates": [ [ 108.9915485, 22.9246988 ], [ 108.9917833, 22.9245935 ] ] } },
{ "type": "Feature", "properties": { "source_layer": "gis_osm_roads_free", "source_fid": "<NA>", "osm_id": "830425170", "fclass": "secondary", "record_id": "roads:gis_osm_roads_free:830425170:secondary", "source_crs": "OGC:CRS84", "district_code": "450126", "data_source": "OpenStreetMap", "data_type": "real", "dedup_status": "kept", "dedup_reason": "<NA>", "road_name": "", "road_class": "secondary", "road_ref": "X039", "oneway": "B", "maxspeed_kmh": 0, "bridge_flag": "T", "tunnel_flag": "F", "layer_level": 1, "longitude": 109.0139517, "latitude": 22.9384956, "source_record_id": null, "record_id_origin": "derived_from_source_layer_osm_id_fclass", "boundary_version": "smartbidata_task06_20260810", "boundary_status": "team_shared", "code_validation_status": "team_shared_source", "province": "广西壮族自治区", "city": "南宁市", "district": "宾阳县", "road_length_m": 23.165880519831557, "flood_intersection_length_m": 11.815599783256246, "flood_intersection_ratio": 0.51004319793246344, "intersecting_flood_polygon_count": 1, "suspected_affected": true, "suspected_impassable_review": true, "bridge_flag_normalized": "True", "bridge_review": true, "assessment_status": "疑似受影响，需现场核查", "evidence": "Task_20洪涝范围相交筛查；道路通行状态需现场核查", "event_id": "nanning_flood_20260706_0707", "analysis_date": "2026-07-07", "calculation_version": "dispatch_v3", "source_commit": "074f2c6841becf074f14d90e06a2e9672972f1ec" }, "geometry": { "type": "LineString", "coordinates": [ [ 109.0139517, 22.9384956 ], [ 109.0141609, 22.9385746 ] ] } },
{ "type": "Feature", "properties": { "source_layer": "gis_osm_roads_free", "source_fid": "<NA>", "osm_id": "990432954", "fclass": "motorway", "record_id": "roads:gis_osm_roads_free:990432954:motorway", "source_crs": "OGC:CRS84", "district_code": null, "data_source": "OpenStreetMap", "data_type": "real", "dedup_status": "kept", "dedup_reason": "<NA>", "road_name": "上横高速", "road_class": "motorway", "road_ref": "S84", "oneway": "F", "maxspeed_kmh": 120, "bridge_flag": "T", "tunnel_flag": "F", "layer_level": 1, "longitude": 109.0613807, "latitude": 22.9326347, "source_record_id": null, "record_id_origin": "derived_from_source_layer_osm_id_fclass", "boundary_version": "smartbidata_task06_20260810", "boundary_status": "team_shared", "code_validation_status": "team_shared_source", "province": null, "city": null, "district": null, "road_length_m": 88.070986361141024, "flood_intersection_length_m": 54.224520267070922, "flood_intersection_ratio": 0.61569107497808206, "intersecting_flood_polygon_count": 1, "suspected_affected": true, "suspected_impassable_review": true, "bridge_flag_normalized": "True", "bridge_review": true, "assessment_status": "疑似受影响，需现场核查", "evidence": "Task_20洪涝范围相交筛查；道路通行状态需现场核查", "event_id": "nanning_flood_20260706_0707", "analysis_date": "2026-07-07", "calculation_version": "dispatch_v3", "source_commit": "074f2c6841becf074f14d90e06a2e9672972f1ec" }, "geometry": { "type": "LineString", "coordinates": [ [ 109.0613807, 22.9326347 ], [ 109.0615874, 22.9318631 ] ] } },
{ "type": "Feature", "properties": { "source_layer": "gis_osm_roads_free", "source_fid": "<NA>", "osm_id": "990432987", "fclass": "motorway", "record_id": "roads:gis_osm_roads_free:990432987:motorway", "source_crs": "OGC:CRS84", "district_code": null, "data_source": "OpenStreetMap", "data_type": "real", "dedup_status": "kept", "dedup_reason": "<NA>", "road_name": "上横高速", "road_class": "motorway", "road_ref": "S84", "oneway": "F", "maxspeed_kmh": 120, "bridge_flag": "T", "tunnel_flag": "F", "layer_level": 1, "longitude": 109.0614801, "latitude": 22.9326565, "source_record_id": null, "record_id_origin": "derived_from_source_layer_osm_id_fclass", "boundary_version": "smartbidata_task06_20260810", "boundary_status": "team_shared", "code_validation_status": "team_shared_source", "province": null, "city": null, "district": null, "road_length_m": 87.787354694329068, "flood_intersection_length_m": 87.787354694329068, "flood_intersection_ratio": 1.0, "intersecting_flood_polygon_count": 1, "suspected_affected": true, "suspected_impassable_review": true, "bridge_flag_normalized": "True", "bridge_review": true, "assessment_status": "疑似受影响，需现场核查", "evidence": "Task_20洪涝范围相交筛查；道路通行状态需现场核查", "event_id": "nanning_flood_20260706_0707", "analysis_date": "2026-07-07", "calculation_version": "dispatch_v3", "source_commit": "074f2c6841becf074f14d90e06a2e9672972f1ec" }, "geometry": { "type": "LineString", "coordinates": [ [ 109.0616862, 22.9318874 ], [ 109.0614801, 22.9326565 ] ] } },
{ "type": "Feature", "properties": { "source_layer": "gis_osm_roads_free", "source_fid": "<NA>", "osm_id": "1446668036", "fclass": "unclassified", "record_id": "roads:gis_osm_roads_free:1446668036:unclassified", "source_crs": "OGC:CRS84", "district_code": "450181", "data_source": "OpenStreetMap", "data_type": "real", "dedup_status": "kept", "dedup_reason": "<NA>", "road_name": "", "road_class": "unclassified", "road_ref": "", "oneway": "B", "maxspeed_kmh": 0, "bridge_flag": "T", "tunnel_flag": "F", "layer_level": 1, "longitude": 109.0009479, "latitude": 22.9244081, "source_record_id": null, "record_id_origin": "derived_from_source_layer_osm_id_fclass", "boundary_version": "smartbidata_task06_20260810", "boundary_status": "team_shared", "code_validation_status": "team_shared_source", "province": "广西壮族自治区", "city": "南宁市", "district": "横州市", "road_length_m": 29.086393768395371, "flood_intersection_length_m": 29.086393768395371, "flood_intersection_ratio": 1.0, "intersecting_flood_polygon_count": 1, "suspected_affected": true, "suspected_impassable_review": true, "bridge_flag_normalized": "True", "bridge_review": true, "assessment_status": "疑似受影响，需现场核查", "evidence": "Task_20洪涝范围相交筛查；道路通行状态需现场核查", "event_id": "nanning_flood_20260706_0707", "analysis_date": "2026-07-07", "calculation_version": "dispatch_v3", "source_commit": "074f2c6841becf074f14d90e06a2e9672972f1ec" }, "geometry": { "type": "LineString", "coordinates": [ [ 109.0009479, 22.9244081 ], [ 109.0006696, 22.9244589 ] ] } },
{ "type": "Feature", "properties": { "source_layer": "gis_osm_roads_free", "source_fid": "<NA>", "osm_id": "1446668082", "fclass": "residential", "record_id": "roads:gis_osm_roads_free:1446668082:residential", "source_crs": "OGC:CRS84", "district_code": "450181", "data_source": "OpenStreetMap", "data_type": "real", "dedup_status": "kept", "dedup_reason": "<NA>", "road_name": "", "road_class": "residential", "road_ref": "", "oneway": "B", "maxspeed_kmh": 0, "bridge_flag": "T", "tunnel_flag": "F", "layer_level": 1, "longitude": 109.0161665, "latitude": 22.915471, "source_record_id": null, "record_id_origin": "derived_from_source_layer_osm_id_fclass", "boundary_version": "smartbidata_task06_20260810", "boundary_status": "team_shared", "code_validation_status": "team_shared_source", "province": "广西壮族自治区", "city": "南宁市", "district": "横州市", "road_length_m": 25.954223942295009, "flood_intersection_length_m": 5.6879727010554113, "flood_intersection_ratio": 0.21915402724819252, "intersecting_flood_polygon_count": 1, "suspected_affected": true, "suspected_impassable_review": true, "bridge_flag_normalized": "True", "bridge_review": true, "assessment_status": "疑似受影响，需现场核查", "evidence": "Task_20洪涝范围相交筛查；道路通行状态需现场核查", "event_id": "nanning_flood_20260706_0707", "analysis_date": "2026-07-07", "calculation_version": "dispatch_v3", "source_commit": "074f2c6841becf074f14d90e06a2e9672972f1ec" }, "geometry": { "type": "LineString", "coordinates": [ [ 109.0161967, 22.9157036 ], [ 109.0161665, 22.915471 ] ] } },
{ "type": "Feature", "properties": { "source_layer": "gis_osm_roads_free", "source_fid": "<NA>", "osm_id": "1387006403", "fclass": "residential", "record_id": "roads:gis_osm_roads_free:1387006403:residential", "source_crs": "OGC:CRS84", "district_code": "450181", "data_source": "OpenStreetMap", "data_type": "real", "dedup_status": "kept", "dedup_reason": "<NA>", "road_name": "", "road_class": "residential", "road_ref": "", "oneway": "B", "maxspeed_kmh": 0, "bridge_flag": "T", "tunnel_flag": "F", "layer_level": 1, "longitude": 108.9528476, "latitude": 22.9033928, "source_record_id": null, "record_id_origin": "derived_from_source_layer_osm_id_fclass", "boundary_version": "smartbidata_task06_20260810", "boundary_status": "team_shared", "code_validation_status": "team_shared_source", "province": "广西壮族自治区", "city": "南宁市", "district": "横州市", "road_length_m": 41.739298668543249, "flood_intersection_length_m": 14.905503716992834, "flood_intersection_ratio": 0.35710958718686719, "intersecting_flood_polygon_count": 1, "suspected_affected": true, "suspected_impassable_review": true, "bridge_flag_normalized": "True", "bridge_review": true, "assessment_status": "疑似受影响，需现场核查", "evidence": "Task_20洪涝范围相交筛查；道路通行状态需现场核查", "event_id": "nanning_flood_20260706_0707", "analysis_date": "2026-07-07", "calculation_version": "dispatch_v3", "source_commit": "074f2c6841becf074f14d90e06a2e9672972f1ec" }, "geometry": { "type": "LineString", "coordinates": [ [ 108.9529875, 22.903039 ], [ 108.9528476, 22.9033928 ] ] } },
{ "type": "Feature", "properties": { "source_layer": "gis_osm_roads_free", "source_fid": "<NA>", "osm_id": "858384982", "fclass": "tertiary", "record_id": "roads:gis_osm_roads_free:858384982:tertiary", "source_crs": "OGC:CRS84", "district_code": "450181", "data_source": "OpenStreetMap", "data_type": "real", "dedup_status": "kept", "dedup_reason": "<NA>", "road_name": "", "road_class": "tertiary", "road_ref": "", "oneway": "B", "maxspeed_kmh": 0, "bridge_flag": "T", "tunnel_flag": "F", "layer_level": 1, "longitude": 109.2173195, "latitude": 22.9060592, "source_record_id": null, "record_id_origin": "derived_from_source_layer_osm_id_fclass", "boundary_version": "smartbidata_task06_20260810", "boundary_status": "team_shared", "code_validation_status": "team_shared_source", "province": "广西壮族自治区", "city": "南宁市", "district": "横州市", "road_length_m": 19.262304056597525, "flood_intersection_length_m": 19.262304056597525, "flood_intersection_ratio": 1.0, "intersecting_flood_polygon_count": 1, "suspected_affected": true, "suspected_impassable_review": true, "bridge_flag_normalized": "True", "bridge_review": true, "assessment_status": "疑似受影响，需现场核查", "evidence": "Task_20洪涝范围相交筛查；道路通行状态需现场核查", "event_id": "nanning_flood_20260706_0707", "analysis_date": "2026-07-07", "calculation_version": "dispatch_v3", "source_commit": "074f2c6841becf074f14d90e06a2e9672972f1ec" }, "geometry": { "type": "LineString", "coordinates": [ [ 109.217443, 22.9059282 ], [ 109.2173195, 22.9060592 ] ] } },
{ "type": "Feature", "properties": { "source_layer": "gis_osm_roads_free", "source_fid": "<NA>", "osm_id": "1386903054", "fclass": "tertiary", "record_id": "roads:gis_osm_roads_free:1386903054:tertiary", "source_crs": "OGC:CRS84", "district_code": "450126", "data_source": "OpenStreetMap", "data_type": "real", "dedup_status": "kept", "dedup_reason": "<NA>", "road_name": "", "road_class": "tertiary", "road_ref": "", "oneway": "B", "maxspeed_kmh": 0, "bridge_flag": "T", "tunnel_flag": "F", "layer_level": 1, "longitude": 108.9846771, "latitude": 22.9818468, "source_record_id": null, "record_id_origin": "derived_from_source_layer_osm_id_fclass", "boundary_version": "smartbidata_task06_20260810", "boundary_status": "team_shared", "code_validation_status": "team_shared_source", "province": "广西壮族自治区", "city": "南宁市", "district": "宾阳县", "road_length_m": 33.299456227924068, "flood_intersection_length_m": 17.865201323745723, "flood_intersection_ratio": 0.53650129303806537, "intersecting_flood_polygon_count": 1, "suspected_affected": true, "suspected_impassable_review": true, "bridge_flag_normalized": "True", "bridge_review": true, "assessment_status": "疑似受影响，需现场核查", "evidence": "Task_20洪涝范围相交筛查；道路通行状态需现场核查", "event_id": "nanning_flood_20260706_0707", "analysis_date": "2026-07-07", "calculation_version": "dispatch_v3", "source_commit": "074f2c6841becf074f14d90e06a2e9672972f1ec" }, "geometry": { "type": "LineString", "coordinates": [ [ 108.9846771, 22.9818468 ], [ 108.984906, 22.9820601 ] ] } },
{ "type": "Feature", "properties": { "source_layer": "gis_osm_roads_free", "source_fid": "<NA>", "osm_id": "1386903062", "fclass": "residential", "record_id": "roads:gis_osm_roads_free:1386903062:residential", "source_crs": "OGC:CRS84", "district_code": "450126", "data_source": "OpenStreetMap", "data_type": "real", "dedup_status": "kept", "dedup_reason": "<NA>", "road_name": "", "road_class": "residential", "road_ref": "", "oneway": "B", "maxspeed_kmh": 0, "bridge_flag": "T", "tunnel_flag": "F", "layer_level": 1, "longitude": 108.9815719, "latitude": 22.9890427, "source_record_id": null, "record_id_origin": "derived_from_source_layer_osm_id_fclass", "boundary_version": "smartbidata_task06_20260810", "boundary_status": "team_shared", "code_validation_status": "team_shared_source", "province": "广西壮族自治区", "city": "南宁市", "district": "宾阳县", "road_length_m": 26.33551699619591, "flood_intersection_length_m": 26.33551699619591, "flood_intersection_ratio": 1.0, "intersecting_flood_polygon_count": 1, "suspected_affected": true, "suspected_impassable_review": true, "bridge_flag_normalized": "True", "bridge_review": true, "assessment_status": "疑似受影响，需现场核查", "evidence": "Task_20洪涝范围相交筛查；道路通行状态需现场核查", "event_id": "nanning_flood_20260706_0707", "analysis_date": "2026-07-07", "calculation_version": "dispatch_v3", "source_commit": "074f2c6841becf074f14d90e06a2e9672972f1ec" }, "geometry": { "type": "LineString", "coordinates": [ [ 108.981777, 22.9891859 ], [ 108.9815719, 22.9890427 ] ] } },
{ "type": "Feature", "properties": { "source_layer": "gis_osm_roads_free", "source_fid": "<NA>", "osm_id": "387707365", "fclass": "motorway", "record_id": "roads:gis_osm_roads_free:387707365:motorway", "source_crs": "OGC:CRS84", "district_code": "450126", "data_source": "OpenStreetMap", "data_type": "real", "dedup_status": "kept", "dedup_reason": "<NA>", "road_name": "柳南高速", "road_class": "motorway", "road_ref": "G72", "oneway": "F", "maxspeed_kmh": 0, "bridge_flag": "T", "tunnel_flag": "F", "layer_level": 1, "longitude": 108.9795779, "latitude": 22.9937383, "source_record_id": null, "record_id_origin": "derived_from_source_layer_osm_id_fclass", "boundary_version": "smartbidata_task06_20260810", "boundary_status": "team_shared", "code_validation_status": "team_shared_source", "province": "广西壮族自治区", "city": "南宁市", "district": "宾阳县", "road_length_m": 90.379955008788542, "flood_intersection_length_m": 90.379955008788542, "flood_intersection_ratio": 1.0, "intersecting_flood_polygon_count": 1, "suspected_affected": true, "suspected_impassable_review": true, "bridge_flag_normalized": "True", "bridge_review": true, "assessment_status": "疑似受影响，需现场核查", "evidence": "Task_20洪涝范围相交筛查；道路通行状态需现场核查", "event_id": "nanning_flood_20260706_0707", "analysis_date": "2026-07-07", "calculation_version": "dispatch_v3", "source_commit": "074f2c6841becf074f14d90e06a2e9672972f1ec" }, "geometry": { "type": "LineString", "coordinates": [ [ 108.9795779, 22.9937383 ], [ 108.980076, 22.9944115 ] ] } },
{ "type": "Feature", "properties": { "source_layer": "gis_osm_roads_free", "source_fid": "<NA>", "osm_id": "387707366", "fclass": "motorway", "record_id": "roads:gis_osm_roads_free:387707366:motorway", "source_crs": "OGC:CRS84", "district_code": "450126", "data_source": "OpenStreetMap", "data_type": "real", "dedup_status": "kept", "dedup_reason": "<NA>", "road_name": "柳南高速", "road_class": "motorway", "road_ref": "G72", "oneway": "F", "maxspeed_kmh": 0, "bridge_flag": "T", "tunnel_flag": "F", "layer_level": 1, "longitude": 108.9797443, "latitude": 22.9943742, "source_record_id": null, "record_id_origin": "derived_from_source_layer_osm_id_fclass", "boundary_version": "smartbidata_task06_20260810", "boundary_status": "team_shared", "code_validation_status": "team_shared_source", "province": "广西壮族自治区", "city": "南宁市", "district": "宾阳县", "road_length_m": 74.392206927281933, "flood_intersection_length_m": 73.609109798443527, "flood_intersection_ratio": 0.98947339834125525, "intersecting_flood_polygon_count": 1, "suspected_affected": true, "suspected_impassable_review": true, "bridge_flag_normalized": "True", "bridge_review": true, "assessment_status": "疑似受影响，需现场核查", "evidence": "Task_20洪涝范围相交筛查；道路通行状态需现场核查", "event_id": "nanning_flood_20260706_0707", "analysis_date": "2026-07-07", "calculation_version": "dispatch_v3", "source_commit": "074f2c6841becf074f14d90e06a2e9672972f1ec" }, "geometry": { "type": "LineString", "coordinates": [ [ 108.9797443, 22.9943742 ], [ 108.9793335, 22.9938206 ] ] } },
{ "type": "Feature", "properties": { "source_layer": "gis_osm_roads_free", "source_fid": "<NA>", "osm_id": "521875086", "fclass": "secondary", "record_id": "roads:gis_osm_roads_free:521875086:secondary", "source_crs": "OGC:CRS84", "district_code": "450126", "data_source": "OpenStreetMap", "data_type": "real", "dedup_status": "kept", "dedup_reason": "<NA>", "road_name": "", "road_class": "secondary", "road_ref": "X039", "oneway": "B", "maxspeed_kmh": 0, "bridge_flag": "T", "tunnel_flag": "F", "layer_level": 1, "longitude": 109.0257299, "latitude": 23.0120769, "source_record_id": null, "record_id_origin": "derived_from_source_layer_osm_id_fclass", "boundary_version": "smartbidata_task06_20260810", "boundary_status": "team_shared", "code_validation_status": "team_shared_source", "province": "广西壮族自治区", "city": "南宁市", "district": "宾阳县", "road_length_m": 29.8904233549009, "flood_intersection_length_m": 29.8904233549009, "flood_intersection_ratio": 1.0, "intersecting_flood_polygon_count": 1, "suspected_affected": true, "suspected_impassable_review": true, "bridge_flag_normalized": "True", "bridge_review": true, "assessment_status": "疑似受影响，需现场核查", "evidence": "Task_20洪涝范围相交筛查；道路通行状态需现场核查", "event_id": "nanning_flood_20260706_0707", "analysis_date": "2026-07-07", "calculation_version": "dispatch_v3", "source_commit": "074f2c6841becf074f14d90e06a2e9672972f1ec" }, "geometry": { "type": "LineString", "coordinates": [ [ 109.0259054, 23.0122924 ], [ 109.0257299, 23.0120769 ] ] } },
{ "type": "Feature", "properties": { "source_layer": "gis_osm_roads_free", "source_fid": "<NA>", "osm_id": "1251915943", "fclass": "unclassified", "record_id": "roads:gis_osm_roads_free:1251915943:unclassified", "source_crs": "OGC:CRS84", "district_code": "450126", "data_source": "OpenStreetMap", "data_type": "real", "dedup_status": "kept", "dedup_reason": "<NA>", "road_name": "", "road_class": "unclassified", "road_ref": "", "oneway": "B", "maxspeed_kmh": 0, "bridge_flag": "T", "tunnel_flag": "F", "layer_level": 1, "longitude": 109.0888403, "latitude": 23.0485329, "source_record_id": null, "record_id_origin": "derived_from_source_layer_osm_id_fclass", "boundary_version": "smartbidata_task06_20260810", "boundary_status": "team_shared", "code_validation_status": "team_shared_source", "province": "广西壮族自治区", "city": "南宁市", "district": "宾阳县", "road_length_m": 40.792291168341507, "flood_intersection_length_m": 31.480502692432225, "flood_intersection_ratio": 0.77172675990467365, "intersecting_flood_polygon_count": 1, "suspected_affected": true, "suspected_impassable_review": true, "bridge_flag_normalized": "True", "bridge_review": true, "assessment_status": "疑似受影响，需现场核查", "evidence": "Task_20洪涝范围相交筛查；道路通行状态需现场核查", "event_id": "nanning_flood_20260706_0707", "analysis_date": "2026-07-07", "calculation_version": "dispatch_v3", "source_commit": "074f2c6841becf074f14d90e06a2e9672972f1ec" }, "geometry": { "type": "LineString", "coordinates": [ [ 109.0884646, 23.0484109 ], [ 109.0888403, 23.0485329 ] ] } },
{ "type": "Feature", "properties": { "source_layer": "gis_osm_roads_free", "source_fid": "<NA>", "osm_id": "1251915971", "fclass": "unclassified", "record_id": "roads:gis_osm_roads_free:1251915971:unclassified", "source_crs": "OGC:CRS84", "district_code": "450126", "data_source": "OpenStreetMap", "data_type": "real", "dedup_status": "kept", "dedup_reason": "<NA>", "road_name": "", "road_class": "unclassified", "road_ref": "", "oneway": "B", "maxspeed_kmh": 0, "bridge_flag": "T", "tunnel_flag": "F", "layer_level": 1, "longitude": 109.0826443, "latitude": 23.1301353, "source_record_id": null, "record_id_origin": "derived_from_source_layer_osm_id_fclass", "boundary_version": "smartbidata_task06_20260810", "boundary_status": "team_shared", "code_validation_status": "team_shared_source", "province": "广西壮族自治区", "city": "南宁市", "district": "宾阳县", "road_length_m": 23.735360620816625, "flood_intersection_length_m": 17.607154199714945, "flood_intersection_ratio": 0.74181110963500341, "intersecting_flood_polygon_count": 1, "suspected_affected": true, "suspected_impassable_review": true, "bridge_flag_normalized": "True", "bridge_review": true, "assessment_status": "疑似受影响，需现场核查", "evidence": "Task_20洪涝范围相交筛查；道路通行状态需现场核查", "event_id": "nanning_flood_20260706_0707", "analysis_date": "2026-07-07", "calculation_version": "dispatch_v3", "source_commit": "074f2c6841becf074f14d90e06a2e9672972f1ec" }, "geometry": { "type": "LineString", "coordinates": [ [ 109.0826443, 23.1301353 ], [ 109.0824921, 23.1302969 ] ] } },
{ "type": "Feature", "properties": { "source_layer": "gis_osm_roads_free", "source_fid": "<NA>", "osm_id": "1434331317", "fclass": "residential", "record_id": "roads:gis_osm_roads_free:1434331317:residential", "source_crs": "OGC:CRS84", "district_code": "450126", "data_source": "OpenStreetMap", "data_type": "real", "dedup_status": "kept", "dedup_reason": "<NA>", "road_name": "", "road_class": "residential", "road_ref": "", "oneway": "B", "maxspeed_kmh": 0, "bridge_flag": "T", "tunnel_flag": "F", "layer_level": 1, "longitude": 109.0465044, "latitude": 23.215939, "source_record_id": null, "record_id_origin": "derived_from_source_layer_osm_id_fclass", "boundary_version": "smartbidata_task06_20260810", "boundary_status": "team_shared", "code_validation_status": "team_shared_source", "province": "广西壮族自治区", "city": "南宁市", "district": "宾阳县", "road_length_m": 60.32568045875508, "flood_intersection_length_m": 52.775302157337968, "flood_intersection_ratio": 0.87483973253183045, "intersecting_flood_polygon_count": 1, "suspected_affected": true, "suspected_impassable_review": true, "bridge_flag_normalized": "True", "bridge_review": true, "assessment_status": "疑似受影响，需现场核查", "evidence": "Task_20洪涝范围相交筛查；道路通行状态需现场核查", "event_id": "nanning_flood_20260706_0707", "analysis_date": "2026-07-07", "calculation_version": "dispatch_v3", "source_commit": "074f2c6841becf074f14d90e06a2e9672972f1ec" }, "geometry": { "type": "LineString", "coordinates": [ [ 109.0465044, 23.215939 ], [ 109.0459263, 23.2160461 ] ] } },
{ "type": "Feature", "properties": { "source_layer": "gis_osm_roads_free", "source_fid": "<NA>", "osm_id": "1434331338", "fclass": "residential", "record_id": "roads:gis_osm_roads_free:1434331338:residential", "source_crs": "OGC:CRS84", "district_code": "450126", "data_source": "OpenStreetMap", "data_type": "real", "dedup_status": "kept", "dedup_reason": "<NA>", "road_name": "", "road_class": "residential", "road_ref": "", "oneway": "B", "maxspeed_kmh": 0, "bridge_flag": "T", "tunnel_flag": "F", "layer_level": 1, "longitude": 109.0177578, "latitude": 23.1905803, "source_record_id": null, "record_id_origin": "derived_from_source_layer_osm_id_fclass", "boundary_version": "smartbidata_task06_20260810", "boundary_status": "team_shared", "code_validation_status": "team_shared_source", "province": "广西壮族自治区", "city": "南宁市", "district": "宾阳县", "road_length_m": 13.574754053708357, "flood_intersection_length_m": 13.574754053708357, "flood_intersection_ratio": 1.0, "intersecting_flood_polygon_count": 1, "suspected_affected": true, "suspected_impassable_review": true, "bridge_flag_normalized": "True", "bridge_review": true, "assessment_status": "疑似受影响，需现场核查", "evidence": "Task_20洪涝范围相交筛查；道路通行状态需现场核查", "event_id": "nanning_flood_20260706_0707", "analysis_date": "2026-07-07", "calculation_version": "dispatch_v3", "source_commit": "074f2c6841becf074f14d90e06a2e9672972f1ec" }, "geometry": { "type": "LineString", "coordinates": [ [ 109.0176416, 23.1905212 ], [ 109.0177578, 23.1905803 ] ] } },
{ "type": "Feature", "properties": { "source_layer": "gis_osm_roads_free", "source_fid": "<NA>", "osm_id": "865632095", "fclass": "tertiary", "record_id": "roads:gis_osm_roads_free:865632095:tertiary", "source_crs": "OGC:CRS84", "district_code": "450125", "data_source": "OpenStreetMap", "data_type": "real", "dedup_status": "kept", "dedup_reason": "<NA>", "road_name": "", "road_class": "tertiary", "road_ref": "", "oneway": "B", "maxspeed_kmh": 0, "bridge_flag": "T", "tunnel_flag": "F", "layer_level": 1, "longitude": 108.8101494, "latitude": 23.3912148, "source_record_id": null, "record_id_origin": "derived_from_source_layer_osm_id_fclass", "boundary_version": "smartbidata_task06_20260810", "boundary_status": "team_shared", "code_validation_status": "team_shared_source", "province": "广西壮族自治区", "city": "南宁市", "district": "上林县", "road_length_m": 21.219763172414186, "flood_intersection_length_m": 15.59028618960968, "flood_intersection_ratio": 0.73470594666566025, "intersecting_flood_polygon_count": 1, "suspected_affected": true, "suspected_impassable_review": true, "bridge_flag_normalized": "True", "bridge_review": true, "assessment_status": "疑似受影响，需现场核查", "evidence": "Task_20洪涝范围相交筛查；道路通行状态需现场核查", "event_id": "nanning_flood_20260706_0707", "analysis_date": "2026-07-07", "calculation_version": "dispatch_v3", "source_commit": "074f2c6841becf074f14d90e06a2e9672972f1ec" }, "geometry": { "type": "LineString", "coordinates": [ [ 108.8101494, 23.3912148 ], [ 108.810348, 23.3911588 ] ] } },
{ "type": "Feature", "properties": { "source_layer": "gis_osm_roads_free", "source_fid": "<NA>", "osm_id": "1369958557", "fclass": "tertiary", "record_id": "roads:gis_osm_roads_free:1369958557:tertiary", "source_crs": "OGC:CRS84", "district_code": "450126", "data_source": "OpenStreetMap", "data_type": "real", "dedup_status": "kept", "dedup_reason": "<NA>", "road_name": "", "road_class": "tertiary", "road_ref": "", "oneway": "B", "maxspeed_kmh": 0, "bridge_flag": "T", "tunnel_flag": "F", "layer_level": 1, "longitude": 108.8837791, "latitude": 23.3302768, "source_record_id": null, "record_id_origin": "derived_from_source_layer_osm_id_fclass", "boundary_version": "smartbidata_task06_20260810", "boundary_status": "team_shared", "code_validation_status": "team_shared_source", "province": "广西壮族自治区", "city": "南宁市", "district": "宾阳县", "road_length_m": 46.486099745729717, "flood_intersection_length_m": 7.913240655892551, "flood_intersection_ratio": 0.17022810472757446, "intersecting_flood_polygon_count": 1, "suspected_affected": true, "suspected_impassable_review": false, "bridge_flag_normalized": "True", "bridge_review": true, "assessment_status": "疑似受影响，需现场核查", "evidence": "Task_20洪涝范围相交筛查；道路通行状态需现场核查", "event_id": "nanning_flood_20260706_0707", "analysis_date": "2026-07-07", "calculation_version": "dispatch_v3", "source_commit": "074f2c6841becf074f14d90e06a2e9672972f1ec" }, "geometry": { "type": "LineString", "coordinates": [ [ 108.8835615, 23.3306452 ], [ 108.8837791, 23.3302768 ] ] } },
{ "type": "Feature", "properties": { "source_layer": "gis_osm_roads_free", "source_fid": "<NA>", "osm_id": "1425820524", "fclass": "motorway", "record_id": "roads:gis_osm_roads_free:1425820524:motorway", "source_crs": "OGC:CRS84", "district_code": "450126", "data_source": "OpenStreetMap", "data_type": "real", "dedup_status": "kept", "dedup_reason": "<NA>", "road_name": "上横高速", "road_class": "motorway", "road_ref": "S84", "oneway": "F", "maxspeed_kmh": 120, "bridge_flag": "T", "tunnel_flag": "F", "layer_level": 1, "longitude": 108.8934857, "latitude": 23.3375914, "source_record_id": null, "record_id_origin": "derived_from_source_layer_osm_id_fclass", "boundary_version": "smartbidata_task06_20260810", "boundary_status": "team_shared", "code_validation_status": "team_shared_source", "province": "广西壮族自治区", "city": "南宁市", "district": "宾阳县", "road_length_m": 219.49883037810494, "flood_intersection_length_m": 219.49883037810494, "flood_intersection_ratio": 1.0, "intersecting_flood_polygon_count": 1, "suspected_affected": true, "suspected_impassable_review": true, "bridge_flag_normalized": "True", "bridge_review": true, "assessment_status": "疑似受影响，需现场核查", "evidence": "Task_20洪涝范围相交筛查；道路通行状态需现场核查", "event_id": "nanning_flood_20260706_0707", "analysis_date": "2026-07-07", "calculation_version": "dispatch_v3", "source_commit": "074f2c6841becf074f14d90e06a2e9672972f1ec" }, "geometry": { "type": "LineString", "coordinates": [ [ 108.8934857, 23.3375914 ], [ 108.8955683, 23.3371086 ] ] } },
{ "type": "Feature", "properties": { "source_layer": "gis_osm_roads_free", "source_fid": "<NA>", "osm_id": "857870163", "fclass": "tertiary", "record_id": "roads:gis_osm_roads_free:857870163:tertiary", "source_crs": "OGC:CRS84", "district_code": "450126", "data_source": "OpenStreetMap", "data_type": "real", "dedup_status": "kept", "dedup_reason": "<NA>", "road_name": "", "road_class": "tertiary", "road_ref": "Y003", "oneway": "B", "maxspeed_kmh": 0, "bridge_flag": "T", "tunnel_flag": "F", "layer_level": 1, "longitude": 108.8946444, "latitude": 23.3383401, "source_record_id": null, "record_id_origin": "derived_from_source_layer_osm_id_fclass", "boundary_version": "smartbidata_task06_20260810", "boundary_status": "team_shared", "code_validation_status": "team_shared_source", "province": "广西壮族自治区", "city": "南宁市", "district": "宾阳县", "road_length_m": 47.422004805065662, "flood_intersection_length_m": 47.422004805065662, "flood_intersection_ratio": 1.0, "intersecting_flood_polygon_count": 1, "suspected_affected": true, "suspected_impassable_review": true, "bridge_flag_normalized": "True", "bridge_review": true, "assessment_status": "疑似受影响，需现场核查", "evidence": "Task_20洪涝范围相交筛查；道路通行状态需现场核查", "event_id": "nanning_flood_20260706_0707", "analysis_date": "2026-07-07", "calculation_version": "dispatch_v3", "source_commit": "074f2c6841becf074f14d90e06a2e9672972f1ec" }, "geometry": { "type": "LineString", "coordinates": [ [ 108.8941884, 23.3384189 ], [ 108.8946444, 23.3383401 ] ] } },
{ "type": "Feature", "properties": { "source_layer": "gis_osm_roads_free", "source_fid": "<NA>", "osm_id": "1425820527", "fclass": "motorway", "record_id": "roads:gis_osm_roads_free:1425820527:motorway", "source_crs": "OGC:CRS84", "district_code": "450126", "data_source": "OpenStreetMap", "data_type": "real", "dedup_status": "kept", "dedup_reason": "<NA>", "road_name": "上横高速", "road_class": "motorway", "road_ref": "S84", "oneway": "F", "maxspeed_kmh": 120, "bridge_flag": "T", "tunnel_flag": "F", "layer_level": 1, "longitude": 108.8935661, "latitude": 23.3376899, "source_record_id": null, "record_id_origin": "derived_from_source_layer_osm_id_fclass", "boundary_version": "smartbidata_task06_20260810", "boundary_status": "team_shared", "code_validation_status": "team_shared_source", "province": "广西壮族自治区", "city": "南宁市", "district": "宾阳县", "road_length_m": 216.15547022511242, "flood_intersection_length_m": 216.15547022511242, "flood_intersection_ratio": 1.0, "intersecting_flood_polygon_count": 1, "suspected_affected": true, "suspected_impassable_review": true, "bridge_flag_normalized": "True", "bridge_review": true, "assessment_status": "疑似受影响，需现场核查", "evidence": "Task_20洪涝范围相交筛查；道路通行状态需现场核查", "event_id": "nanning_flood_20260706_0707", "analysis_date": "2026-07-07", "calculation_version": "dispatch_v3", "source_commit": "074f2c6841becf074f14d90e06a2e9672972f1ec" }, "geometry": { "type": "LineString", "coordinates": [ [ 108.8956162, 23.3372116 ], [ 108.8935661, 23.3376899 ] ] } },
{ "type": "Feature", "properties": { "source_layer": "gis_osm_roads_free", "source_fid": "<NA>", "osm_id": "1425820528", "fclass": "motorway", "record_id": "roads:gis_osm_roads_free:1425820528:motorway", "source_crs": "OGC:CRS84", "district_code": "450126", "data_source": "OpenStreetMap", "data_type": "real", "dedup_status": "kept", "dedup_reason": "<NA>", "road_name": "上横高速", "road_class": "motorway", "road_ref": "S84", "oneway": "F", "maxspeed_kmh": 120, "bridge_flag": "T", "tunnel_flag": "F", "layer_level": 1, "longitude": 108.8826966, "latitude": 23.3393605, "source_record_id": null, "record_id_origin": "derived_from_source_layer_osm_id_fclass", "boundary_version": "smartbidata_task06_20260810", "boundary_status": "team_shared", "code_validation_status": "team_shared_source", "province": "广西壮族自治区", "city": "南宁市", "district": "宾阳县", "road_length_m": 200.41703469761259, "flood_intersection_length_m": 22.378950275407632, "flood_intersection_ratio": 0.11166191690827473, "intersecting_flood_polygon_count": 1, "suspected_affected": true, "suspected_impassable_review": false, "bridge_flag_normalized": "True", "bridge_review": true, "assessment_status": "疑似受影响，需现场核查", "evidence": "Task_20洪涝范围相交筛查；道路通行状态需现场核查", "event_id": "nanning_flood_20260706_0707", "analysis_date": "2026-07-07", "calculation_version": "dispatch_v3", "source_commit": "074f2c6841becf074f14d90e06a2e9672972f1ec" }, "geometry": { "type": "LineString", "coordinates": [ [ 108.8807541, 23.3396064 ], [ 108.8826966, 23.3393605 ] ] } },
{ "type": "Feature", "properties": { "source_layer": "gis_osm_roads_free", "source_fid": "<NA>", "osm_id": "1425820531", "fclass": "motorway", "record_id": "roads:gis_osm_roads_free:1425820531:motorway", "source_crs": "OGC:CRS84", "district_code": "450126", "data_source": "OpenStreetMap", "data_type": "real", "dedup_status": "kept", "dedup_reason": "<NA>", "road_name": "上横高速", "road_class": "motorway", "road_ref": "S84", "oneway": "F", "maxspeed_kmh": 120, "bridge_flag": "T", "tunnel_flag": "F", "layer_level": 1, "longitude": 108.8827209, "latitude": 23.3394931, "source_record_id": null, "record_id_origin": "derived_from_source_layer_osm_id_fclass", "boundary_version": "smartbidata_task06_20260810", "boundary_status": "team_shared", "code_validation_status": "team_shared_source", "province": "广西壮族自治区", "city": "南宁市", "district": "宾阳县", "road_length_m": 201.9184886146225, "flood_intersection_length_m": 91.33677150896699, "flood_intersection_ratio": 0.45234476612634755, "intersecting_flood_polygon_count": 1, "suspected_affected": true, "suspected_impassable_review": true, "bridge_flag_normalized": "True", "bridge_review": true, "assessment_status": "疑似受影响，需现场核查", "evidence": "Task_20洪涝范围相交筛查；道路通行状态需现场核查", "event_id": "nanning_flood_20260706_0707", "analysis_date": "2026-07-07", "calculation_version": "dispatch_v3", "source_commit": "074f2c6841becf074f14d90e06a2e9672972f1ec" }, "geometry": { "type": "LineString", "coordinates": [ [ 108.8827209, 23.3394931 ], [ 108.8807629, 23.3397344 ] ] } },
{ "type": "Feature", "properties": { "source_layer": "gis_osm_roads_free", "source_fid": "<NA>", "osm_id": "1425821808", "fclass": "motorway", "record_id": "roads:gis_osm_roads_free:1425821808:motorway", "source_crs": "OGC:CRS84", "district_code": "450126", "data_source": "OpenStreetMap", "data_type": "real", "dedup_status": "kept", "dedup_reason": "<NA>", "road_name": "上横高速", "road_class": "motorway", "road_ref": "S84", "oneway": "F", "maxspeed_kmh": 120, "bridge_flag": "T", "tunnel_flag": "F", "layer_level": 1, "longitude": 108.9024091, "latitude": 23.3355942, "source_record_id": null, "record_id_origin": "derived_from_source_layer_osm_id_fclass", "boundary_version": "smartbidata_task06_20260810", "boundary_status": "team_shared", "code_validation_status": "team_shared_source", "province": "广西壮族自治区", "city": "南宁市", "district": "宾阳县", "road_length_m": 28.687395468964151, "flood_intersection_length_m": 5.6492219731756368, "flood_intersection_ratio": 0.1969234878533091, "intersecting_flood_polygon_count": 1, "suspected_affected": true, "suspected_impassable_review": false, "bridge_flag_normalized": "True", "bridge_review": true, "assessment_status": "疑似受影响，需现场核查", "evidence": "Task_20洪涝范围相交筛查；道路通行状态需现场核查", "event_id": "nanning_flood_20260706_0707", "analysis_date": "2026-07-07", "calculation_version": "dispatch_v3", "source_commit": "074f2c6841becf074f14d90e06a2e9672972f1ec" }, "geometry": { "type": "LineString", "coordinates": [ [ 108.9026803, 23.3355276 ], [ 108.9024091, 23.3355942 ] ] } },
{ "type": "Feature", "properties": { "source_layer": "gis_osm_roads_free", "source_fid": "<NA>", "osm_id": "1425820532", "fclass": "motorway", "record_id": "roads:gis_osm_roads_free:1425820532:motorway", "source_crs": "OGC:CRS84", "district_code": "450126", "data_source": "OpenStreetMap", "data_type": "real", "dedup_status": "kept", "dedup_reason": "<NA>", "road_name": "上横高速", "road_class": "motorway", "road_ref": "S84", "oneway": "F", "maxspeed_kmh": 120, "bridge_flag": "T", "tunnel_flag": "F", "layer_level": 1, "longitude": 108.8033366, "latitude": 23.3454031, "source_record_id": null, "record_id_origin": "derived_from_source_layer_osm_id_fclass", "boundary_version": "smartbidata_task06_20260810", "boundary_status": "team_shared", "code_validation_status": "team_shared_source", "province": "广西壮族自治区", "city": "南宁市", "district": "宾阳县", "road_length_m": 50.480769189161187, "flood_intersection_length_m": 50.480769189161187, "flood_intersection_ratio": 1.0, "intersecting_flood_polygon_count": 1, "suspected_affected": true, "suspected_impassable_review": true, "bridge_flag_normalized": "True", "bridge_review": true, "assessment_status": "疑似受影响，需现场核查", "evidence": "Task_20洪涝范围相交筛查；道路通行状态需现场核查", "event_id": "nanning_flood_20260706_0707", "analysis_date": "2026-07-07", "calculation_version": "dispatch_v3", "source_commit": "074f2c6841becf074f14d90e06a2e9672972f1ec" }, "geometry": { "type": "LineString", "coordinates": [ [ 108.8033366, 23.3454031 ], [ 108.8038249, 23.3453348 ] ] } },
{ "type": "Feature", "properties": { "source_layer": "gis_osm_roads_free", "source_fid": "<NA>", "osm_id": "1425820535", "fclass": "motorway", "record_id": "roads:gis_osm_roads_free:1425820535:motorway", "source_crs": "OGC:CRS84", "district_code": "450126", "data_source": "OpenStreetMap", "data_type": "real", "dedup_status": "kept", "dedup_reason": "<NA>", "road_name": "上横高速", "road_class": "motorway", "road_ref": "S84", "oneway": "F", "maxspeed_kmh": 120, "bridge_flag": "T", "tunnel_flag": "F", "layer_level": 1, "longitude": 108.8033527, "latitude": 23.3455361, "source_record_id": null, "record_id_origin": "derived_from_source_layer_osm_id_fclass", "boundary_version": "smartbidata_task06_20260810", "boundary_status": "team_shared", "code_validation_status": "team_shared_source", "province": "广西壮族自治区", "city": "南宁市", "district": "宾阳县", "road_length_m": 49.93679139883541, "flood_intersection_length_m": 43.157582863250887, "flood_intersection_ratio": 0.86424421061737211, "intersecting_flood_polygon_count": 1, "suspected_affected": true, "suspected_impassable_review": true, "bridge_flag_normalized": "True", "bridge_review": true, "assessment_status": "疑似受影响，需现场核查", "evidence": "Task_20洪涝范围相交筛查；道路通行状态需现场核查", "event_id": "nanning_flood_20260706_0707", "analysis_date": "2026-07-07", "calculation_version": "dispatch_v3", "source_commit": "074f2c6841becf074f14d90e06a2e9672972f1ec" }, "geometry": { "type": "LineString", "coordinates": [ [ 108.8038355, 23.3454671 ], [ 108.8033527, 23.3455361 ] ] } },
{ "type": "Feature", "properties": { "source_layer": "gis_osm_roads_free", "source_fid": "<NA>", "osm_id": "1425820536", "fclass": "motorway", "record_id": "roads:gis_osm_roads_free:1425820536:motorway", "source_crs": "OGC:CRS84", "district_code": "450126", "data_source": "OpenStreetMap", "data_type": "real", "dedup_status": "kept", "dedup_reason": "<NA>", "road_name": "上横高速", "road_class": "motorway", "road_ref": "S84", "oneway": "F", "maxspeed_kmh": 120, "bridge_flag": "T", "tunnel_flag": "F", "layer_level": 1, "longitude": 108.7998956, "latitude": 23.3455416, "source_record_id": null, "record_id_origin": "derived_from_source_layer_osm_id_fclass", "boundary_version": "smartbidata_task06_20260810", "boundary_status": "team_shared", "code_validation_status": "team_shared_source", "province": "广西壮族自治区", "city": "南宁市", "district": "宾阳县", "road_length_m": 56.767253831520712, "flood_intersection_length_m": 16.546705436962654, "flood_intersection_ratio": 0.29148328164810561, "intersecting_flood_polygon_count": 1, "suspected_affected": true, "suspected_impassable_review": true, "bridge_flag_normalized": "True", "bridge_review": true, "assessment_status": "疑似受影响，需现场核查", "evidence": "Task_20洪涝范围相交筛查；道路通行状态需现场核查", "event_id": "nanning_flood_20260706_0707", "analysis_date": "2026-07-07", "calculation_version": "dispatch_v3", "source_commit": "074f2c6841becf074f14d90e06a2e9672972f1ec" }, "geometry": { "type": "LineString", "coordinates": [ [ 108.7998956, 23.3455416 ], [ 108.8004506, 23.3455607 ] ] } },
{ "type": "Feature", "properties": { "source_layer": "gis_osm_roads_free", "source_fid": "<NA>", "osm_id": "527285878", "fclass": "tertiary", "record_id": "roads:gis_osm_roads_free:527285878:tertiary", "source_crs": "OGC:CRS84", "district_code": "450126", "data_source": "OpenStreetMap", "data_type": "real", "dedup_status": "kept", "dedup_reason": "<NA>", "road_name": "", "road_class": "tertiary", "road_ref": "", "oneway": "B", "maxspeed_kmh": 0, "bridge_flag": "T", "tunnel_flag": "F", "layer_level": 1, "longitude": 108.9194153, "latitude": 23.2025271, "source_record_id": null, "record_id_origin": "derived_from_source_layer_osm_id_fclass", "boundary_version": "smartbidata_task06_20260810", "boundary_status": "team_shared", "code_validation_status": "team_shared_source", "province": "广西壮族自治区", "city": "南宁市", "district": "宾阳县", "road_length_m": 39.865721205439968, "flood_intersection_length_m": 14.115300082055263, "flood_intersection_ratio": 0.35407110809095632, "intersecting_flood_polygon_count": 1, "suspected_affected": true, "suspected_impassable_review": true, "bridge_flag_normalized": "True", "bridge_review": true, "assessment_status": "疑似受影响，需现场核查", "evidence": "Task_20洪涝范围相交筛查；道路通行状态需现场核查", "event_id": "nanning_flood_20260706_0707", "analysis_date": "2026-07-07", "calculation_version": "dispatch_v3", "source_commit": "074f2c6841becf074f14d90e06a2e9672972f1ec" }, "geometry": { "type": "LineString", "coordinates": [ [ 108.9194153, 23.2025271 ], [ 108.9192578, 23.202198 ] ] } },
{ "type": "Feature", "properties": { "source_layer": "gis_osm_roads_free", "source_fid": "<NA>", "osm_id": "527285867", "fclass": "primary", "record_id": "roads:gis_osm_roads_free:527285867:primary", "source_crs": "OGC:CRS84", "district_code": "450126", "data_source": "OpenStreetMap", "data_type": "real", "dedup_status": "kept", "dedup_reason": "<NA>", "road_name": "", "road_class": "primary", "road_ref": "S210", "oneway": "B", "maxspeed_kmh": 0, "bridge_flag": "T", "tunnel_flag": "F", "layer_level": 1, "longitude": 108.9290544, "latitude": 23.223899, "source_record_id": null, "record_id_origin": "derived_from_source_layer_osm_id_fclass", "boundary_version": "smartbidata_task06_20260810", "boundary_status": "team_shared", "code_validation_status": "team_shared_source", "province": "广西壮族自治区", "city": "南宁市", "district": "宾阳县", "road_length_m": 34.311746388574385, "flood_intersection_length_m": 13.723363135323075, "flood_intersection_ratio": 0.39996107979781748, "intersecting_flood_polygon_count": 1, "suspected_affected": true, "suspected_impassable_review": true, "bridge_flag_normalized": "True", "bridge_review": true, "assessment_status": "疑似受影响，需现场核查", "evidence": "Task_20洪涝范围相交筛查；道路通行状态需现场核查", "event_id": "nanning_flood_20260706_0707", "analysis_date": "2026-07-07", "calculation_version": "dispatch_v3", "source_commit": "074f2c6841becf074f14d90e06a2e9672972f1ec" }, "geometry": { "type": "LineString", "coordinates": [ [ 108.9290544, 23.223899 ], [ 108.9290687, 23.2242084 ] ] } },
{ "type": "Feature", "properties": { "source_layer": "gis_osm_roads_free", "source_fid": "<NA>", "osm_id": "1434331326", "fclass": "residential", "record_id": "roads:gis_osm_roads_free:1434331326:residential", "source_crs": "OGC:CRS84", "district_code": "450126", "data_source": "OpenStreetMap", "data_type": "real", "dedup_status": "kept", "dedup_reason": "<NA>", "road_name": "", "road_class": "residential", "road_ref": "", "oneway": "B", "maxspeed_kmh": 0, "bridge_flag": "T", "tunnel_flag": "F", "layer_level": 1, "longitude": 109.0539187, "latitude": 23.2199834, "source_record_id": null, "record_id_origin": "derived_from_source_layer_osm_id_fclass", "boundary_version": "smartbidata_task06_20260810", "boundary_status": "team_shared", "code_validation_status": "team_shared_source", "province": "广西壮族自治区", "city": "南宁市", "district": "宾阳县", "road_length_m": 24.426655365455154, "flood_intersection_length_m": 24.426655365455154, "flood_intersection_ratio": 1.0, "intersecting_flood_polygon_count": 1, "suspected_affected": true, "suspected_impassable_review": true, "bridge_flag_normalized": "True", "bridge_review": true, "assessment_status": "疑似受影响，需现场核查", "evidence": "Task_20洪涝范围相交筛查；道路通行状态需现场核查", "event_id": "nanning_flood_20260706_0707", "analysis_date": "2026-07-07", "calculation_version": "dispatch_v3", "source_commit": "074f2c6841becf074f14d90e06a2e9672972f1ec" }, "geometry": { "type": "LineString", "coordinates": [ [ 109.0537956, 23.2197945 ], [ 109.0539187, 23.2199834 ] ] } },
{ "type": "Feature", "properties": { "source_layer": "gis_osm_roads_free", "source_fid": "<NA>", "osm_id": "1434331334", "fclass": "residential", "record_id": "roads:gis_osm_roads_free:1434331334:residential", "source_crs": "OGC:CRS84", "district_code": "450126", "data_source": "OpenStreetMap", "data_type": "real", "dedup_status": "kept", "dedup_reason": "<NA>", "road_name": "", "road_class": "residential", "road_ref": "", "oneway": "B", "maxspeed_kmh": 0, "bridge_flag": "T", "tunnel_flag": "F", "layer_level": 1, "longitude": 109.0664131, "latitude": 23.2192607, "source_record_id": null, "record_id_origin": "derived_from_source_layer_osm_id_fclass", "boundary_version": "smartbidata_task06_20260810", "boundary_status": "team_shared", "code_validation_status": "team_shared_source", "province": "广西壮族自治区", "city": "南宁市", "district": "宾阳县", "road_length_m": 38.014012048226178, "flood_intersection_length_m": 25.033058247386393, "flood_intersection_ratio": 0.65852186861066919, "intersecting_flood_polygon_count": 1, "suspected_affected": true, "suspected_impassable_review": true, "bridge_flag_normalized": "True", "bridge_review": true, "assessment_status": "疑似受影响，需现场核查", "evidence": "Task_20洪涝范围相交筛查；道路通行状态需现场核查", "event_id": "nanning_flood_20260706_0707", "analysis_date": "2026-07-07", "calculation_version": "dispatch_v3", "source_commit": "074f2c6841becf074f14d90e06a2e9672972f1ec" }, "geometry": { "type": "LineString", "coordinates": [ [ 109.0667009, 23.2190437 ], [ 109.0664131, 23.2192607 ] ] } },
{ "type": "Feature", "properties": { "source_layer": "gis_osm_roads_free", "source_fid": "<NA>", "osm_id": "521896848", "fclass": "tertiary", "record_id": "roads:gis_osm_roads_free:521896848:tertiary", "source_crs": "OGC:CRS84", "district_code": "450126", "data_source": "OpenStreetMap", "data_type": "real", "dedup_status": "kept", "dedup_reason": "<NA>", "road_name": "", "road_class": "tertiary", "road_ref": "", "oneway": "B", "maxspeed_kmh": 0, "bridge_flag": "T", "tunnel_flag": "F", "layer_level": 1, "longitude": 109.1266634, "latitude": 23.2737528, "source_record_id": null, "record_id_origin": "derived_from_source_layer_osm_id_fclass", "boundary_version": "smartbidata_task06_20260810", "boundary_status": "team_shared", "code_validation_status": "team_shared_source", "province": "广西壮族自治区", "city": "南宁市", "district": "宾阳县", "road_length_m": 30.553914842652706, "flood_intersection_length_m": 14.902599591173937, "flood_intersection_ratio": 0.48774763129110321, "intersecting_flood_polygon_count": 1, "suspected_affected": true, "suspected_impassable_review": true, "bridge_flag_normalized": "True", "bridge_review": true, "assessment_status": "疑似受影响，需现场核查", "evidence": "Task_20洪涝范围相交筛查；道路通行状态需现场核查", "event_id": "nanning_flood_20260706_0707", "analysis_date": "2026-07-07", "calculation_version": "dispatch_v3", "source_commit": "074f2c6841becf074f14d90e06a2e9672972f1ec" }, "geometry": { "type": "LineString", "coordinates": [ [ 109.1266634, 23.2737528 ], [ 109.1268232, 23.2735198 ] ] } },
{ "type": "Feature", "properties": { "source_layer": "gis_osm_roads_free", "source_fid": "<NA>", "osm_id": "1188530497", "fclass": "secondary", "record_id": "roads:gis_osm_roads_free:1188530497:secondary", "source_crs": "OGC:CRS84", "district_code": "450181", "data_source": "OpenStreetMap", "data_type": "real", "dedup_status": "kept", "dedup_reason": "<NA>", "road_name": "横州大道", "road_class": "secondary", "road_ref": "X597", "oneway": "B", "maxspeed_kmh": 0, "bridge_flag": "T", "tunnel_flag": "F", "layer_level": 1, "longitude": 109.2578919, "latitude": 22.731601, "source_record_id": null, "record_id_origin": "derived_from_source_layer_osm_id_fclass", "boundary_version": "smartbidata_task06_20260810", "boundary_status": "team_shared", "code_validation_status": "team_shared_source", "province": "广西壮族自治区", "city": "南宁市", "district": "横州市", "road_length_m": 83.027564122030995, "flood_intersection_length_m": 36.295894429736613, "flood_intersection_ratio": 0.4371547547316959, "intersecting_flood_polygon_count": 1, "suspected_affected": true, "suspected_impassable_review": true, "bridge_flag_normalized": "True", "bridge_review": true, "assessment_status": "疑似受影响，需现场核查", "evidence": "Task_20洪涝范围相交筛查；道路通行状态需现场核查", "event_id": "nanning_flood_20260706_0707", "analysis_date": "2026-07-07", "calculation_version": "dispatch_v3", "source_commit": "074f2c6841becf074f14d90e06a2e9672972f1ec" }, "geometry": { "type": "LineString", "coordinates": [ [ 109.2578919, 22.731601 ], [ 109.2574293, 22.7322157 ] ] } },
{ "type": "Feature", "properties": { "source_layer": "gis_osm_roads_free", "source_fid": "<NA>", "osm_id": "387829330", "fclass": "primary", "record_id": "roads:gis_osm_roads_free:387829330:primary", "source_crs": "OGC:CRS84", "district_code": "450181", "data_source": "OpenStreetMap", "data_type": "real", "dedup_status": "kept", "dedup_reason": "<NA>", "road_name": "", "road_class": "primary", "road_ref": "S210", "oneway": "B", "maxspeed_kmh": 0, "bridge_flag": "T", "tunnel_flag": "F", "layer_level": 1, "longitude": 109.1324596, "latitude": 22.8023992, "source_record_id": null, "record_id_origin": "derived_from_source_layer_osm_id_fclass", "boundary_version": "smartbidata_task06_20260810", "boundary_status": "team_shared", "code_validation_status": "team_shared_source", "province": "广西壮族自治区", "city": "南宁市", "district": "横州市", "road_length_m": 34.678780255956099, "flood_intersection_length_m": 34.678780255956099, "flood_intersection_ratio": 1.0, "intersecting_flood_polygon_count": 1, "suspected_affected": true, "suspected_impassable_review": true, "bridge_flag_normalized": "True", "bridge_review": true, "assessment_status": "疑似受影响，需现场核查", "evidence": "Task_20洪涝范围相交筛查；道路通行状态需现场核查", "event_id": "nanning_flood_20260706_0707", "analysis_date": "2026-07-07", "calculation_version": "dispatch_v3", "source_commit": "074f2c6841becf074f14d90e06a2e9672972f1ec" }, "geometry": { "type": "LineString", "coordinates": [ [ 109.13256, 22.8026981 ], [ 109.1324596, 22.8023992 ] ] } },
{ "type": "Feature", "properties": { "source_layer": "gis_osm_roads_free", "source_fid": "<NA>", "osm_id": "387841532", "fclass": "primary", "record_id": "roads:gis_osm_roads_free:387841532:primary", "source_crs": "OGC:CRS84", "district_code": "450181", "data_source": "OpenStreetMap", "data_type": "real", "dedup_status": "kept", "dedup_reason": "<NA>", "road_name": "", "road_class": "primary", "road_ref": "S210", "oneway": "B", "maxspeed_kmh": 0, "bridge_flag": "T", "tunnel_flag": "F", "layer_level": 1, "longitude": 109.096239, "latitude": 22.8463785, "source_record_id": null, "record_id_origin": "derived_from_source_layer_osm_id_fclass", "boundary_version": "smartbidata_task06_20260810", "boundary_status": "team_shared", "code_validation_status": "team_shared_source", "province": "广西壮族自治区", "city": "南宁市", "district": "横州市", "road_length_m": 31.643347195941072, "flood_intersection_length_m": 31.643347195941072, "flood_intersection_ratio": 1.0, "intersecting_flood_polygon_count": 1, "suspected_affected": true, "suspected_impassable_review": true, "bridge_flag_normalized": "True", "bridge_review": true, "assessment_status": "疑似受影响，需现场核查", "evidence": "Task_20洪涝范围相交筛查；道路通行状态需现场核查", "event_id": "nanning_flood_20260706_0707", "analysis_date": "2026-07-07", "calculation_version": "dispatch_v3", "source_commit": "074f2c6841becf074f14d90e06a2e9672972f1ec" }, "geometry": { "type": "LineString", "coordinates": [ [ 109.096239, 22.8463785 ], [ 109.0964862, 22.8462077 ] ] } },
{ "type": "Feature", "properties": { "source_layer": "gis_osm_roads_free", "source_fid": "<NA>", "osm_id": "990432961", "fclass": "motorway", "record_id": "roads:gis_osm_roads_free:990432961:motorway", "source_crs": "OGC:CRS84", "district_code": "450181", "data_source": "OpenStreetMap", "data_type": "real", "dedup_status": "kept", "dedup_reason": "<NA>", "road_name": "上横高速", "road_class": "motorway", "road_ref": "S84", "oneway": "F", "maxspeed_kmh": 120, "bridge_flag": "T", "tunnel_flag": "F", "layer_level": 1, "longitude": 109.0836248, "latitude": 22.8924561, "source_record_id": null, "record_id_origin": "derived_from_source_layer_osm_id_fclass", "boundary_version": "smartbidata_task06_20260810", "boundary_status": "team_shared", "code_validation_status": "team_shared_source", "province": "广西壮族自治区", "city": "南宁市", "district": "横州市", "road_length_m": 648.187566708688, "flood_intersection_length_m": 130.07753254653028, "flood_intersection_ratio": 0.20067884548762169, "intersecting_flood_polygon_count": 1, "suspected_affected": true, "suspected_impassable_review": true, "bridge_flag_normalized": "True", "bridge_review": true, "assessment_status": "疑似受影响，需现场核查", "evidence": "Task_20洪涝范围相交筛查；道路通行状态需现场核查", "event_id": "nanning_flood_20260706_0707", "analysis_date": "2026-07-07", "calculation_version": "dispatch_v3", "source_commit": "074f2c6841becf074f14d90e06a2e9672972f1ec" }, "geometry": { "type": "LineString", "coordinates": [ [ 109.0832959, 22.8957927 ], [ 109.0834514, 22.8949417 ], [ 109.0836031, 22.8935636 ], [ 109.0836248, 22.8924561 ], [ 109.0835595, 22.8903708 ], [ 109.0835808, 22.8899626 ] ] } },
{ "type": "Feature", "properties": { "source_layer": "gis_osm_roads_free", "source_fid": "<NA>", "osm_id": "990432991", "fclass": "motorway", "record_id": "roads:gis_osm_roads_free:990432991:motorway", "source_crs": "OGC:CRS84", "district_code": "450181", "data_source": "OpenStreetMap", "data_type": "real", "dedup_status": "kept", "dedup_reason": "<NA>", "road_name": "上横高速", "road_class": "motorway", "road_ref": "S84", "oneway": "F", "maxspeed_kmh": 120, "bridge_flag": "T", "tunnel_flag": "F", "layer_level": 1, "longitude": 109.0837562, "latitude": 22.8935007, "source_record_id": null, "record_id_origin": "derived_from_source_layer_osm_id_fclass", "boundary_version": "smartbidata_task06_20260810", "boundary_status": "team_shared", "code_validation_status": "team_shared_source", "province": "广西壮族自治区", "city": "南宁市", "district": "横州市", "road_length_m": 655.93278956500217, "flood_intersection_length_m": 50.034210955520237, "flood_intersection_ratio": 0.076279478250662919, "intersecting_flood_polygon_count": 1, "suspected_affected": true, "suspected_impassable_review": false, "bridge_flag_normalized": "True", "bridge_review": true, "assessment_status": "疑似受影响，需现场核查", "evidence": "Task_20洪涝范围相交筛查；道路通行状态需现场核查", "event_id": "nanning_flood_20260706_0707", "analysis_date": "2026-07-07", "calculation_version": "dispatch_v3", "source_commit": "074f2c6841becf074f14d90e06a2e9672972f1ec" }, "geometry": { "type": "LineString", "coordinates": [ [ 109.0836908, 22.8899497 ], [ 109.08374, 22.8909168 ], [ 109.0837818, 22.892286 ], [ 109.0837562, 22.8935007 ], [ 109.0835959, 22.8948889 ], [ 109.0834009, 22.8958438 ] ] } }
]
}
